iata,icao,name,lat,lon,iso_country,iso_region
AAH,EDKA,Aachen-Merzbrück Airport,50.823055,6.186389,DE,DE-NW
AAL,EKYT,Aalborg Airport,57.09275891,9.849243164,DK,DK-81
AAQ,URKA,Anapa Vityazevo Airport,45.0021019,37.34730148,RU,RU-KDA
AAR,EKAH,Aarhus Airport,56.29999924,10.61900043,DK,DK-82
ABC,LEAB,Albacete-Los Llanos Airport,38.94850159,-1.863520026,ES,ES-CM
ABZ,EGPD,Aberdeen Dyce Airport,57.20190048,-2.197779894,GB,GB-SCT
ACE,GCRR,Lanzarote Airport,28.945499,-13.6052,ES,ES-CN
ACH,LSZR,St Gallen Altenrhein Airport,47.48500061,9.560770035,CH,CH-SG
ACI,EGJA,Alderney Airport,49.706104,-2.21472,GG,GG-U-A
ACO,LSZD,Ascona Airport,46.15779877,8.78194046,CH,CH-TI
ADX,EGQL,RAF Leuchars,56.3728981,-2.868439913,GB,GB-SCT
AEI,AEI,Algeciras Heliport,36.12888,-5.441118,ES,ES-CA
AEM,UHTG,Amgu Airport,45.84126,137.673568,RU,RU-PRI
AER,URSS,Sochi International Airport,43.449902,39.9566,RU,RU-KDA
AES,ENAL,Ålesund Airport,62.5625,6.119699955,NO,NO-15
AEY,BIAR,Akureyri Airport,65.66000366,-18.0727005,IS,IS-6
AGB,EDMA,Augsburg Airport,48.425278,10.931667,DE,DE-BY
AGE,EDWG,Wangerooge Airport,53.78277969,7.913888931,DE,DE-NI
AGF,LFBA,Agen-La Garenne Airport,44.17470169,0.590556026,FR,FR-NAQ
AGH,ESTA,Ängelholm-Helsingborg Airport,56.29610062,12.84710026,SE,SE-M
AGP,LEMG,Málaga Airport,36.67490005,-4.499110222,ES,ES-AN
AGQ,LGAG,Agrinion Air Base,38.602001,21.3512001,GR,GR-01
AHO,LIEA,Alghero-Fertilia Airport,40.632099,8.29077,IT,IT-88
AHZ,LFHU,Altiport L'Alpe d'Huez - Henri GIRAUD,45.088299,6.08472,FR,FR-ARA
AJA,LFKJ,Ajaccio-Napoléon Bonaparte Airport,41.92359924,8.802920341,FR,FR-COR
AJR,ESNX,Arvidsjaur Airport,65.59030151,19.28190041,SE,SE-BD
AKT,LCRA,RAF Akrotiri,34.590401,32.9879,GB,GB-U-A
ALC,LEAL,Alicante International Airport,38.28219986,-0.558156013,ES,ES-V
ALF,ENAT,Alta Airport,69.97609711,23.37170029,NO,NO-20
ALL,LIMG,Villanova D'Albenga International Airport,44.050598,8.12743,IT,IT-42
ALV,AD-ALV,Andorra la Vella (Our Lady of Meritxell Hospital) Heliport,42.511174,1.533551,AD,AD-08
AMS,EHAM,Amsterdam Airport Schiphol,52.308601,4.76389,NL,NL-NH
ANE,LFJR,Angers-Loire Airport,47.560299,-0.312222,FR,FR-PDL
ANG,LFBU,Angoulême-Brie-Champniers Airport,45.72919846,0.221456006,FR,FR-NAQ
ANR,EBAW,Antwerp International Airport (Deurne),51.1894,4.46028,BE,BE-VAN
ANX,ENAN,Andøya Airport,69.29250336,16.14419937,NO,NO-18
AOC,EDAC,Altenburg-Nobitz Airport,50.981945,12.506389,DE,DE-TH
AOI,LIPY,Ancona Falconara Airport,43.616299,13.3623,IT,IT-57
AOK,LGKP,Karpathos Airport,35.42139816,27.14599991,GR,GR-81
AOT,LIMW,Aosta Airport,45.738499,7.36872,IT,IT-23
ARH,ULAA,Talagi Airport,64.60030365,40.71670151,RU,RU-ARK
ARN,ESSA,Stockholm-Arlanda Airport,59.65190125,17.91860008,SE,SE-AB
ARW,LRAR,Arad International Airport,46.17660141,21.26199913,RO,RO-AR
ASF,URWA,Astrakhan Airport,46.28329849,48.00630188,RU,RU-AST
ATH,LGAV,Eleftherios Venizelos International Airport,37.93640137,23.94449997,GR,GR-A1
AUF,LFLA,Auxerre-Branches Airport,47.85020065,3.49710989,FR,FR-BFC
AUR,LFLW,Aurillac Airport,44.89139938,2.421940088,FR,FR-ARA
AVB,LIPA,Aviano Air Base,46.031898,12.596503,IT,IT-36
AVN,LFMV,Avignon-Caumont Airport,43.90729904,4.901830196,FR,FR-PAC
AVR,LPAR,Alverca Air Base,38.883301,-9.0301,PT,PT-11
AXD,LGAL,Dimokritos Airport,40.85589981,25.95630074,GR,GR-71
AYH,EGWZ,RAF Alconbury,52.37440109,-0.219722003,GB,GB-ENG
BAE,LFMR,Barcelonnette - Saint-Pons Airport,44.387198,6.609186,FR,FR-PAC
BAY,LRBM,Maramure? International Airport,47.660598,23.467252,RO,RO-MM
BBH,EDBH,Barth Airport,54.338253,12.710515,DE,DE-MV
BBJ,EDRB,Bitburg Airport,49.945278,6.565,DE,DE-RP
BBP,EGHJ,Bembridge Airport,50.67810059,-1.109439969,GB,GB-ENG
BBS,EGLK,Blackbushe Airport,51.32389832,-0.847500026,GB,GB-ENG
BBU,LRBS,B?neasa International Airport,44.50320053,26.10210037,RO,RO-B
BCM,LRBC,Bac?u Airport,46.52190018,26.9102993,RO,RO-BC
BCN,LEBL,Barcelona International Airport,41.2971,2.07846,ES,ES-CT
BCX,UWUB,Beloretsk Airport,53.93809891,58.34000015,RU,RU-BA
BDS,LIBR,Brindisi – Salento Airport,40.6576,17.947001,IT,IT-75
BDU,ENDU,Bardufoss Airport,69.05580139,18.54039955,NO,NO-19
BEB,EGPL,Benbecula Airport,57.48109818,-7.362780094,GB,GB-SCT
BEG,LYBE,Belgrade Nikola Tesla Airport,44.81840134,20.3090992,RS,RS-00
BEQ,EGXH,RAF Honington,52.34260178,0.772939026,GB,GB-ENG
BER,EDDB,Berlin Brandenburg Airport,52.351389,13.493889,DE,DE-BR
BES,LFRB,Brest Bretagne Airport,48.44789886,-4.418540001,FR,FR-BRE
BEX,EGUB,RAF Benson,51.61640167,-1.095829964,GB,GB-ENG
BFE,EDLI,Bielefeld Airport,51.964722,8.544444,DE,DE-NW
BFS,EGAA,Belfast International Airport,54.65750122,-6.215829849,GB,GB-NIR
BGC,LPBG,Bragança Airport,41.8578,-6.70713,PT,PT-04
BGJ,BIBF,Borgarfjörður eystri Airport,65.5164032,-13.80500031,IS,IS-7
BGN,UESG,Belaya Gora Airport,68.556602,146.231506,RU,RU-SA
BGO,ENBR,Bergen Airport Flesland,60.29339981,5.218140125,NO,NO-12
BGY,LIME,Milan Bergamo Airport,45.673901,9.70417,IT,IT-25
BGZ,LPBR,Braga Municipal Aerodrome,41.58710098,-8.445139885,PT,PT-03
BHD,EGAC,George Best Belfast City Airport,54.61809921,-5.872499943,GB,GB-NIR
BHX,EGBB,Birmingham International Airport,52.45389938,-1.748029947,GB,GB-ENG
BIA,LFKB,Bastia-Poretta Airport,42.55270004,9.483730316,FR,FR-COR
BIO,LEBB,Bilbao Airport,43.30110168,-2.910609961,ES,ES-PV
BIQ,LFBZ,Biarritz-Anglet-Bayonne Airport,43.4683333,-1.5311111,FR,FR-NAQ
BIU,BIBD,Bildudalur Airport,65.64129639,-23.5461998,IS,IS-4
BJD,BIBK,Bakkafjörður Airport,66.02189636,-14.82439995,IS,IS-6
BJF,ENBS,Båtsfjord Airport,70.60050201,29.69140053,NO,NO-20
BJY,LYBT,Batajnica Air Base,44.935299,20.2575,RS,RS-07
BJZ,LEBZ,Badajoz Airport,38.8913002,-6.82133007,ES,ES-EX
BKA,UUBB,Bykovo Airport,55.61719894,38.06000137,RU,RU-MOS
BLE,ESSD,Borlange Airport,60.42200089,15.51519966,SE,SE-W
BLK,EGNH,Blackpool International Airport,53.77170181,-3.028609991,GB,GB-ENG
BLL,EKBI,Billund Airport,55.74029922,9.151780128,DK,DK-83
BLO,BIBL,Hjaltabakki Airport,65.64499664,-20.28750038,IS,IS-5
BLQ,LIPE,Bologna Guglielmo Marconi Airport,44.5354,11.2887,IT,IT-45
BLX,LIDB,Belluno Airport,46.166549,12.250389,IT,IT-34
BLY,EIBT,Belmullet Aerodrome,54.22280121,-10.03079987,IE,IE-MO
BMA,ESSB,Stockholm-Bromma Airport,59.35440063,17.94169998,SE,SE-AB
BMK,EDWR,Borkum Airport,53.59639,6.709167,DE,DE-NI
BMR,EDWZ,Baltrum Airport,53.72472382,7.373332977,DE,DE-NI
BNJ,EDKB,Bonn-Hangelar Airport,50.76889038,7.163332939,DE,DE-NW
BNN,ENBN,Brønnøysund Airport,65.46109772,12.21749973,NO,NO-18
BNX,LQBK,Banja Luka International Airport,44.94139862,17.29750061,BA,BA-SRP
BOD,LFBD,Bordeaux-Mérignac Airport,44.8283,-0.715556,FR,FR-NAQ
BOH,EGHH,Bournemouth Airport,50.77999878,-1.842499971,GB,GB-ENG
BOJ,LBBG,Burgas Airport,42.56959915,27.51519966,BG,BG-02
BOO,ENBO,Bodø Airport,67.26920319,14.36530018,NO,NO-18
BOR,LFSQ,Aéroparc de Belfort-Fontaine,47.655602,7.01083,FR,FR-BFC
BOU,LFLD,Bourges Airport,47.05810165,2.370280027,FR,FR-CVL
BQD,BIBR,Búðardalur Airport,65.07530212,-21.8003006,IS,IS-3
BQG,UHNB,Bogorodskoye Airport,52.38,140.448,RU,RU-KHA
BQH,EGKB,London Biggin Hill Airport,51.3307991,0.032499999,GB,GB-ENG
BQT,UMBB,Brest Airport,52.108299,23.8981,BY,BY-BR
BRE,EDDW,Bremen Airport,53.04750061,8.786669731,DE,DE-HB
BRI,LIBD,Bari Karol Wojty?a Airport,41.138901,16.760599,IT,IT-75
BRN,LSZB,Bern Belp Airport,46.91410065,7.497149944,CH,CH-BE
BRQ,LKTB,Brno-Tu?any Airport,49.15129852,16.69440079,CZ,CZ-JM
BRR,EGPR,Barra Airport,57.0228,-7.44306,GB,GB-SCT
BRS,EGGD,Bristol Airport,51.382702,-2.71909,GB,GB-ENG
BRU,EBBR,Brussels Airport,50.90140152,4.48443985,BE,BE-BRU
BRV,EDWB,Bremerhaven Airport,53.506943,8.572778,DE,DE-HB
BSL,LFSB,EuroAirport Basel-Mulhouse-Freiburg Airport,47.59,7.529167,FR,FR-GES
BTS,LZIB,M. R. Štefánik Airport,48.17020035,17.21269989,SK,SK-BL
BUD,LHBP,Budapest Liszt Ferenc International Airport,47.42976,19.261093,HU,HU-PE
BVA,LFOB,Paris Beauvais Tillé Airport,49.45439911,2.112780094,FR,FR-HDF
BVE,LFSL,Brive-Souillac,45.039722,1.485556,FR,FR-NAQ
BVG,ENBV,Berlevåg Airport,70.871399,29.034201,NO,NO-20
BVV,UHSB,Burevestnik Airport,44.919998,147.621994,RU,RU-SAK
BWE,EDVE,Braunschweig-Wolfsburg Airport,52.319199,10.5561,DE,DE-NI
BWF,EGNL,Barrow Walney Island Airport,54.1286111,-3.2675,GB,GB-ENG
BWK,LDSB,Bol Airport,43.28570175,16.67970085,HR,HR-17
BWO,UWSB,Balakovo Airport,51.85829926,47.74560165,RU,RU-SAR
BWY,EGVJ,RAF Bentwaters,52.12749863,1.434720039,GB,GB-ENG
BXO,LSZC,Buochs Airport,46.974444,8.396944,CH,CH-NW
BXP,EPBP,Bia?a Podlaska Airfield,52.00078,23.1325278,PL,PL-LU
BXV,BIBV,Breiðdalsvík Airport,64.79000092,-14.02280045,IS,IS-7
BYF,LFAQ,Albert-Bray Airport,49.9715004,2.697659969,FR,FR-HDF
BYJ,LPBJ,Beja Airport / Airbase,38.078899,-7.9324,PT,PT-02
BYR,EKLS,Læsø Airport,57.27719879,11.00010014,DK,DK-81
BYT,EIBN,Bantry Aerodrome,51.66859818,-9.48416996,IE,IE-C
BYU,EDQD,Bayreuth Airport,49.985001,11.64,DE,DE-BY
BZG,EPBY,Bydgoszcz Ignacy Jan Paderewski Airport,53.09680176,17.97769928,PL,PL-KP
BZK,UUBP,Bryansk Airport,53.214199,34.176399,RU,RU-BRY
BZO,LIPB,Bolzano Airport,46.460201,11.3264,IT,IT-32
BZR,LFMU,Béziers-Vias Airport,43.32350159,3.353899956,FR,FR-OCC
BZY,LUBL,B?l?i International Airport,47.843056,27.777222,MD,MD-RS
BZZ,EGVN,RAF Brize Norton,51.75,-1.58362,GB,GB-ENG
CAG,LIEE,Cagliari Elmas Airport,39.251499,9.05428,IT,IT-88
CAL,EGEC,Campbeltown Airport,55.43719864,-5.686389923,GB,GB-SCT
CAT,LPCS,Cascais Airport,38.724998,-9.35523,PT,PT-11
CAX,EGNC,Carlisle Airport,54.9375,-2.809170008,GB,GB-ENG
CBG,EGSC,Cambridge Airport,52.205002,0.175,GB,GB-ENG
CBU,EDCD,Cottbus-Drewitz Airport,51.889442,14.531944,DE,DE-BR
CCF,LFMK,Carcassonne Airport,43.2159996,2.306319952,FR,FR-OCC
CDF,LIDI,Cortina Airport,46.57300186,12.11800003,IT,IT-34
CDG,LFPG,Charles de Gaulle International Airport,49.012798,2.55,FR,FR-IDF
CDT,LECH,Castellón-Costa Azahar Airport,40.213889,0.073333,ES,ES-CS
CEE,ULBC,Cherepovets Airport,59.27360153,38.01580048,RU,RU-VLG
CEG,EGNR,Hawarden Airport,53.17810059,-2.977780104,GB,GB-WLS
CEJ,UKRR,Chernihiv Shestovitsa Airport,51.40219879,31.1583004,UA,UA-74
CEK,USCC,Chelyabinsk Balandino Airport,55.305801,61.5033,RU,RU-CHE
CEQ,LFMD,Cannes-Mandelieu Airport,43.542,6.95348,FR,FR-PAC
CER,LFRC,Cherbourg-Maupertus Airport,49.65010071,-1.470280051,FR,FR-NOR
CET,LFOU,Cholet Le Pontreau Airport,47.08209991,-0.87706399,FR,FR-PDL
CFE,LFLC,Clermont-Ferrand Auvergne Airport,45.7867012,3.169169903,FR,FR-ARA
CFN,EIDL,Donegal Airport,55.0442009,-8.340999603,IE,IE-DL
CFR,LFRK,Caen-Carpiquet Airport,49.1733017,-0.449999988,FR,FR-NOR
CFU,LGKR,Ioannis Kapodistrias International Airport,39.60189819,19.9116993,GR,GR-22
CGN,EDDK,Cologne Bonn Airport,50.86589813,7.142739773,DE,DE-NW
CHQ,LGSA,Chania International Airport,35.53170013,24.14970016,GR,GR-94
CHR,LFLX,"Châteauroux-Déols ""Marcel Dassault"" Airport",46.860278,1.721111,FR,FR-CVL
CHV,LPCH,Aerodromo de Chaves,41.722356,-7.463064,PT,PT-17
CIA,LIRA,Ciampino–G. B. Pastine International Airport,41.7994,12.5949,IT,IT-62
CIY,LICB,Comiso Airport,36.994601,14.607182,IT,IT-82
CKC,UKKE,Cherkasy International Airport,49.41559982,31.99530029,UA,UA-71
CKL,UUMU,Chkalovskiy Air Base,55.8783,38.061699,RU,RU-MOS
CLB,EICB,Castlebar Airport,53.8484,-9.28037,IE,IE-MO
CLF,EGYC,RAF Coltishall,52.7547,1.35722,GB,GB-ENG
CLJ,LRCL,Cluj-Napoca International Airport,46.785198,23.686199,RO,RO-CJ
CLY,LFKC,Calvi-Sainte-Catherine Airport,42.5244444,8.7930556,FR,FR-COR
CMF,LFLB,Chambéry-Savoie Airport,45.63809967,5.88022995,FR,FR-ARA
CMR,LFGA,Colmar-Houssen Airport,48.10990143,7.35901022,FR,FR-GES
CND,LRCK,Mihail Kog?lniceanu International Airport,44.36220169,28.48830032,RO,RO-CT
CNG,LFBG,Cognac-Châteaubernard (BA 709) Air Base,45.65829849,-0.317499995,FR,FR-NAQ
CNL,EKSN,Sindal Airport,57.503502,10.2294,DK,DK-81
COL,EGEL,Coll Airport,56.60189819,-6.617780209,GB,GB-SCT
CPH,EKCH,Copenhagen Kastrup Airport,55.61790085,12.65600014,DK,DK-84
CQF,LFAC,Calais-Dunkerque Airport,50.96210098,1.954759955,FR,FR-HDF
CQM,LERL,Ciudad Real Central Airport,38.85638889,-3.97,ES,ES-CM
CRA,LRCV,Craiova Airport,44.31809998,23.8885994,RO,RO-DJ
CRL,EBCI,Brussels South Charleroi Airport,50.459202,4.45382,BE,BE-WHT
CRV,LIBC,Crotone Airport,38.9972,17.0802,IT,IT-78
CSA,EGEY,Colonsay Airstrip,56.057499,-6.24306,GB,GB-SCT
CSB,LRCS,Caransebe? Airport,45.41999817,22.25329971,RO,RO-CS
CSF,LFPC,Creil Air Base,49.25350189,2.519140005,FR,FR-HDF
CSH,ULAS,Solovki Airport,65.02999878,35.73333359,RU,RU-ARK
CSO,EDBC,Cochstedt Airport,51.85639954,11.42029953,DE,DE-ST
CSY,UWKS,Cheboksary Airport,56.09030151,47.34730148,RU,RU-CU
CTA,LICC,Catania-Fontanarossa Airport,37.466801,15.0664,IT,IT-82
CTT,LFMQ,Le Castellet Airport,43.25249863,5.785190105,FR,FR-PAC
CUF,LIMZ,Cuneo International Airport,44.547001,7.62322,IT,IT-21
CVF,LFLJ,Courchevel Airport,45.396702,6.63472,FR,FR-ARA
CVT,EGBE,Coventry Airport,52.36970139,-1.479719996,GB,GB-ENG
CVU,LPCR,Corvo Airport,39.671501,-31.1136,PT,PT-20
CWC,UKLN,Chernivtsi International Airport,48.25930023,25.98080063,UA,UA-77
CWL,EGFF,Cardiff International Airport,51.39670181,-3.343329906,GB,GB-WLS
CZW,EPCH,Cz?stochowa-Rudniki,50.884998,19.2047,PL,PL-SL
DBV,LDDU,Dubrovnik Airport,42.56140137,18.26819992,HR,HR-19
DCI,LIED,Decimomannu Air Base,39.354198,8.97248,IT,IT-88
DCM,LFCK,Castres-Mazamet Airport,43.55630112,2.28918004,FR,FR-OCC
DEB,LHDC,Debrecen International Airport,47.48889923,21.61529922,HU,HU-HB
DEE,UHSM,Yuzhno-Kurilsk Mendeleyevo Airport,43.958401,145.682999,RU,RU-SAK
DGP,EVDA,Daugavpils Intrenational Airport,55.94472122,26.66500092,LV,LV-DA
DHG,DHG,Dalnegorsk Airport,44.558748,135.490005,RU,RU-PRI
DHR,EHKD,De Kooy Airport,52.92340088,4.780620098,NL,NL-NH
DIJ,LFSD,Dijon-Bourgogne Airport,47.268902,5.09,FR,FR-BFC
DJU,BIDV,Djúpivogur Airport,64.64420319,-14.28279972,IS,IS-7
DLD,ENDI,Geilo Airport Dagali,60.41730118,8.518349648,NO,NO-06
DLE,LFGJ,Dole-Tavaux Airport,47.042686,5.435063,FR,FR-BFC
DLR,DLR,Dalnerechensk Airport,45.8783,133.7363,RU,RU-PRI
DLR,RU-0493,Dalnerechensk Airport,45.8783,133.7363,RU,RU-PRI
DME,UUDD,Domodedovo International Airport,55.40879822,37.90629959,RU,RU-MOS
DND,EGPN,Dundee Airport,56.45249939,-3.02583003,GB,GB-SCT
DNK,UKDD,Dnipropetrovsk International Airport,48.35720062,35.1006012,UA,UA-12
DNR,LFRD,Dinard-Pleurtuit-Saint-Malo Airport,48.58769989,-2.079960108,FR,FR-BRE
DOC,GB-DOC,Dornoch Airfield,57.868999,-4.023,GB,GB-SCT
DOK,UKCC,Donetsk International Airport,48.073601,37.7397,UA,UA-14
DOL,LFRG,Deauville-Saint-Gatien Airport,49.36529922,0.154305995,FR,FR-NOR
DPE,LFAB,St Aubin Airport,49.88249969,1.085279942,FR,FR-NOR
DPT,DPT,Deputatskiy Airport,69.392503,139.890012,RU,RU-SA
DRS,EDDC,Dresden Airport,51.13280106,13.76720047,DE,DE-SN
DSA,EGCN,Robin Hood Doncaster Sheffield Airport,53.48053781,-1.010656357,GB,GB-ENG
DTM,EDLW,Dortmund Airport,51.5182991,7.612239838,DE,DE-NW
DUB,EIDW,Dublin Airport,53.421299,-6.27007,IE,IE-D
DUS,EDDL,Düsseldorf Airport,51.289501,6.76678,DE,DE-NW
DYR,UHMA,Ugolny Airport,64.734902,177.740997,RU,RU-CHU
EAS,LESO,San Sebastian Airport,43.35649872,-1.790609956,ES,ES-PV
EBA,LIRJ,Marina Di Campo Airport,42.7603,10.2394,IT,IT-52
EBJ,EKEB,Esbjerg Airport,55.525902,8.5534,DK,DK-83
EBU,LFMH,Saint-Étienne-Bouthéon Airport,45.54059982,4.296390057,FR,FR-ARA
ECV,LECU,Cuatro Vientos Airport,40.370701,-3.78514,ES,ES-M
EDI,EGPH,Edinburgh Airport,55.95000076,-3.372499943,GB,GB-SCT
EDM,LFRI,La Roche-sur-Yon Airport,46.70190048,-1.378630042,FR,FR-PDL
EDN,UHWE,Yedinka Airport,47.178201,138.657357,RU,RU-PRI
EFL,LGKF,Kefallinia Airport,38.12009811,20.50049973,GR,GR-23
EGC,LFBE,Bergerac-Roumanière Airport,44.82529831,0.518611014,FR,FR-NAQ
EGO,UUOB,Belgorod International Airport,50.64379883,36.59009933,RU,RU-BEL
EGS,BIEG,Egilsstaðir Airport,65.28330231,-14.40139961,IS,IS-7
EIB,EDGE,Eisenach-Kindel Airport,50.991604,10.47973,DE,DE-TH
EIK,URKE,Yeysk Airport,46.68,38.21,RU,RU-KDA
EIN,EHEH,Eindhoven Airport,51.45009995,5.374529839,NL,NL-NB
EKS,UHSK,Shakhtyorsk Airport,49.1903,142.082993,RU,RU-SAK
EKT,ESSU,Eskilstuna Airport,59.35110092,16.70840073,SE,SE-D
EMA,EGNX,East Midlands Airport,52.83110046,-1.328060031,GB,GB-ENG
EME,EDWE,Emden Airport,53.391109,7.2275,DE,DE-NI
EML,LSME,Emmen Air Base,47.092444,8.305184,CH,CH-LU
ENC,LFSN,Nancy-Essey Airport,48.69210052,6.230460167,FR,FR-GES
ENF,EFET,Enontekio Airport,68.36260223,23.42429924,FI,FI-10
ENK,EGAB,St Angelo Airport,54.39889908,-7.651669979,GB,GB-NIR
ENS,EHTW,Twente Airport,52.275833,6.889167,NL,NL-OV
EOI,EGED,Eday Airport,59.19060135,-2.772219896,GB,GB-SCT
EPL,LFSG,Épinal-Mirecourt Airport,48.325001,6.06998,FR,FR-GES
EPU,EEPU,Pärnu Airport,58.41899872,24.4727993,EE,EE-67
ERD,UKDB,Berdyansk Airport,46.814999,36.758099,UA,UA-23
ERF,EDDE,Erfurt Airport,50.97980118,10.95810032,DE,DE-TH
ESH,EGKA,Shoreham Airport,50.835602,-0.297222,GB,GB-ENG
ESL,URWI,Elista Airport,46.37390137,44.33089828,RU,RU-KL
ESS,EDLE,Essen Mulheim Airport,51.40230179,6.937329769,DE,DE-NW
ETL,UHTQ,Svetlaya Airport,46.541704,138.321703,RU,RU-PRI
ETZ,LFJL,Metz-Nancy-Lorraine Airport,48.98210144,6.251319885,FR,FR-GES
EUM,EDHN,Neumünster Airport,54.07944489,9.941389084,DE,DE-SH
EVE,ENEV,"Harstad/Narvik Airport, Evenes",68.49130249,16.67810059,NO,NO-18
EVG,ESND,Sveg Airport,62.04779816,14.4229002,SE,SE-Z
EVX,LFOE,Évreux-Fauville (BA 105) Air Base,49.02870178,1.219859958,FR,FR-NOR
EWY,EWY,RAF Greenham Common,51.379,-1.281,GB,GB-ENG
EXT,EGTE,Exeter International Airport,50.7344017,-3.413889885,GB,GB-ENG
EYK,USHY,Beloyarskiy Airport,63.686901,66.698601,RU,RU-KHM
FAB,EGLF,Farnborough Airport,51.2757988,-0.776332974,GB,GB-ENG
FAE,EKVG,Vágar Airport,62.063599,-7.27722,FO,FO-U-A
FAG,BIFM,Fagurhólsmýri Airport,63.87469864,-16.64109993,IS,IS-7
FAN,ENLI,Lista Airport,58.09949875,6.626049995,NO,NO-10
FAO,LPFR,Faro Airport,37.01440048,-7.965909958,PT,PT-08
FAS,BIFF,Fáskrúðsfjörður Airport,64.93170166,-14.06060028,IS,IS-7
FBU,ENFB,"Oslo, Fornebu Airport",59.89580154,10.6171999,NO,NO-03
FCN,ETMN,Nordholz Naval Airbase,53.7677002,8.658499718,DE,DE-NI
FCO,LIRF,Leonardo da Vinci–Fiumicino Airport,41.8002778,12.2388889,IT,IT-62
FDE,ENBL,Førde Airport,61.39110184,5.756939888,NO,NO-14
FDH,EDNY,Friedrichshafen Airport,47.67129898,9.511489868,DE,DE-BW
FEA,FEA,Fetlar Airport,60.60333333,-0.872777778,GB,GB-SCT
FEL,ETSF,Fürstenfeldbruck Air Base,48.205555,11.266944,DE,DE-BY
FFD,EGVA,RAF Fairford,51.68220139,-1.790030003,GB,GB-ENG
FIE,EGEF,Fair Isle Airport,59.53580093,-1.628059983,GB,GB-SCT
FKB,EDSB,Karlsruhe Baden-Baden Airport,48.77939987,8.080499649,DE,DE-BW
FLF,EDXF,Flensburg-Schäferhaus Airport,54.7733345,9.378889084,DE,DE-SH
FLH,GB-FLH,Flotta Isle Airport,58.82580185,-3.142780066,GB,GB-SCT
FLI,BIHT,Holt Airport,66.01418043,-23.4416914,IS,IS-4
FLR,LIRQ,Peretola Airport,43.810001,11.2051,IT,IT-52
FLW,LPFL,Flores Airport,39.45529938,-31.13139915,PT,PT-20
FMM,EDJA,Memmingen Allgau Airport,47.98880005,10.23950005,DE,DE-BY
FMO,EDDG,Münster Osnabrück Airport,52.13460159,7.684830189,DE,DE-NW
FNB,EDBN,Neubrandenburg Airport,53.6022,13.306,DE,DE-MV
FNC,LPMA,Madeira Airport,32.697899,-16.7745,PT,PT-30
FNI,LFTW,Nîmes-Arles-Camargue Airport,43.75740051,4.416349888,FR,FR-OCC
FNU,LIER,Oristano-Fenosu Airport,39.895308,8.642661,IT,IT-88
FOA,GB-FOA,Foula Airfield,60.121725,-2.053202,GB,GB-SCT
FOG,LIBF,"Foggia ""Gino Lisa"" Airport",41.432899,15.535,IT,IT-75
FRA,EDDF,Frankfurt am Main Airport,50.033333,8.570556,DE,DE-HE
FRJ,LFTU,Fréjus Airport,43.4175,6.7357,FR,FR-PAC
FRL,LIPK,Forlì Airport,44.194801,12.0701,IT,IT-45
FRO,ENFL,Florø Airport,61.58359909,5.024720192,NO,NO-14
FRZ,ETHF,Fritzlar Army Airfield,51.1146,9.286,DE,DE-HE
FSC,LFKF,Figari Sud-Corse Airport,41.500599,9.09778,FR,FR-COR
FSS,EGQK,RAF Kinloss,57.6493988,-3.560640097,GB,GB-SCT
FUE,GCFV,Fuerteventura Airport,28.45269966,-13.86380005,ES,ES-CN
FZO,EGTG,Bristol Filton Airport,51.51940155,-2.590830088,GB,GB-ENG
GAT,LFNA,Gap - Tallard Airfield,44.455002,6.03778,FR,FR-PAC
GBA,EGBP,Cotswold Airport,51.668095,-2.05694,GB,GB-ENG
GCI,EGJB,Guernsey Airport,49.43500137,-2.601969957,GG,GG-U-A
GDG,UHBI,Magdagachi Airport,53.473301,125.794998,RU,RU-AMU
GDN,EPGD,Gda?sk Lech Wa??sa Airport,54.37760162,18.46619987,PL,PL-PM
GDZ,URKG,Gelendzhik Airport,44.58209263,38.01248074,RU,RU-KDA
GEV,ESNG,Gällivare Airport,67.13240051,20.81459999,SE,SE-BD
GFR,LFRF,Granville Airport,48.8830986,-1.564170003,FR,FR-NOR
GHF,EDQG,Giebelstadt Airport,49.64805603,9.966388702,DE,DE-BY
GIB,LXGB,Gibraltar Airport,36.15119934,-5.34965992,GI,GI-U-A
GJR,BIGJ,Gjögur Airport,65.99530029,-21.32690048,IS,IS-4
GKE,ETNG,Geilenkirchen Air Base,50.9608,6.04242,DE,DE-NW
GLA,EGPF,Glasgow International Airport,55.871899,-4.43306,GB,GB-SCT
GLL,ENKL,Gol Airport,60.791066,9.048672,NO,NO-06
GLO,EGBJ,Gloucestershire Airport,51.89419937,-2.167220116,GB,GB-ENG
GLZ,EHGR,Gilze Rijen Air Base,51.56740189,4.931829929,NL,NL-NB
GME,UMGG,Gomel Airport,52.52700043,31.01670074,BY,BY-HO
GML,UKKM,Gostomel Airport,50.60350037,30.19190025,UA,UA-32
GMZ,GCGM,La Gomera Airport,28.02960014,-17.21459961,ES,ES-CN
GNA,UMMG,Hrodna Airport,53.60200119,24.05380058,BY,BY-HR
GNB,LFLS,Grenoble-Isère Airport,45.3629,5.32937,FR,FR-U-A
GNE,GNE,Sint-Denijs-Westrem Airport,51.025956,3.688231,BE,BE-VOV
GOA,LIMJ,Genoa Cristoforo Colombo Airport,44.4133,8.8375,IT,IT-42
GOJ,UWGG,Nizhny Novgorod Strigino International Airport,56.23009872,43.7840004,RU,RU-NIZ
GOT,ESGG,Gothenburg-Landvetter Airport,57.66279984,12.27980042,SE,SE-Q
GOZ,LBGO,Gorna Oryahovitsa Airport,43.15140152,25.71290016,BG,BG-04
GPA,LGRX,Araxos Airport,38.1511,21.4256,GR,GR-13
GRO,LEGE,Girona Airport,41.90100098,2.760550022,ES,ES-GE
GRQ,EHGG,Eelde Airport,53.11970139,6.579440117,NL,NL-DR
GRS,LIRS,Grosseto Air Base,42.759701,11.0719,IT,IT-52
GRV,RU-0035,Grozny North Airport,43.388302,45.698601,RU,RU-CE
GRW,LPGR,Graciosa Airport,39.09220123,-28.02980042,PT,PT-20
GRX,LEGR,Federico Garcia Lorca Airport,37.18870163,-3.777359962,ES,ES-AN
GRY,BIGR,Grímsey Airport,66.5458,-18.0173,IS,IS-6
GRZ,LOWG,Graz Airport,46.99110031,15.43959999,AT,AT-6
GSE,ESGP,Gothenburg City Airport,57.7747,11.8704,SE,SE-Q
GSY,EGXB,Binbrook Airfield,53.44670105,-0.209999993,GB,GB-ENG
GTI,EDCG,Flugplatz Güttin / Rügen,54.383331,13.325556,DE,DE-MV
GTW,LKHO,Holešov Airport,49.3143997,17.5688992,CZ,CZ-ZL
GUT,ETUO,Gütersloh Air Base,51.922798,8.30633,DE,DE-NW
GUU,BIGF,Grundarfjörður Airport,64.99140167,-23.22470093,IS,IS-3
GVA,LSGG,Geneva Cointrin International Airport,46.23809814,6.108950138,CH,CH-GE
GVX,ESSK,Gävle Sandviken Airport,60.59329987,16.95140076,SE,SE-X
GWT,EDXW,Westerland Sylt Airport,54.91320038,8.340470314,DE,DE-SH
GWW,GWW,Gatow Airport,52.47439957,13.13809967,DE,DE-BE
GWY,EICM,Galway Airport,53.30020142,-8.941590309,IE,IE-G
GYG,UEMM,Magan Airport,62.103484,129.545288,RU,RU-SA
GZM,LMMG,Xewkija Heliport,36.027199,14.2728,MT,MT-62
HAA,ENHK,Hasvik Airport,70.48670197,22.13969994,NO,NO-20
HAD,ESMT,Halmstad Airport,56.69110107,12.82019997,SE,SE-N
HAJ,EDDV,Hannover Airport,52.46110153,9.685079575,DE,DE-NI
HAM,EDDH,Hamburg Airport,53.63040161,9.988229752,DE,DE-HH
HAU,ENHD,Haugesund Airport,59.34529877,5.208360195,NO,NO-11
HAW,EGFE,Haverfordwest Airport,51.83309937,-4.961110115,GB,GB-WLS
HDB,DE-0419,Heidelberg Army Helicopter Base,49.392397,8.651935,DE,DE-BW
HDF,EDAH,Heringsdorf Airport,53.87870026,14.15229988,DE,DE-MV
HEI,EDXB,Heide-Büsum Airport,54.15333176,8.901666641,DE,DE-SH
HEL,EFHK,Helsinki Vantaa Airport,60.3172,24.963301,FI,FI-18
HEM,EFHF,Helsinki Malmi Airport,60.254601,25.042801,FI,FI-18
HER,LGIR,Heraklion International Nikos Kazantzakis Airport,35.33969879,25.18029976,GR,GR-91
HEW,LGAT,Athen Helenikon Airport,37.893299,23.726101,GR,GR-A1
HFN,BIHN,Hornafjörður Airport,64.295601,-15.2272,IS,IS-8
HFS,ESOH,Hagfors Airport,60.02009964,13.57890034,SE,SE-S
HFT,ENHF,Hammerfest Airport,70.67970276,23.66860008,NO,NO-20
HGL,EDXH,Helgoland-Düne Airport,54.18527985,7.915832996,DE,DE-SH
HHN,EDFH,Frankfurt-Hahn Airport,49.9487,7.26389,DE,DE-RP
HKV,BG-HKV,Malevo Airport,41.87179947,25.60479927,BG,BG-26
HLF,ESSF,Hultsfred Airport,57.525799,15.8233,SE,SE-H
HLO,BIID,Ingjaldssanður Airport,66.05000305,-23.69610023,IS,IS-4
HMJ,UKLH,Khmelnytskyi Airport,49.359699,26.933399,UA,UA-68
HMR,ENHA,Stafsberg Airport,60.81809998,11.06799984,NO,NO-04
HMV,ESUT,Hemavan Airport,65.806099,15.0828,SE,SE-AC
HOH,LOIH,Hohenems-Dornbirn Airfield,47.384998,9.7,AT,AT-8
HOQ,EDQM,Hof-Plauen Airport,50.28861237,11.85638905,DE,DE-BY
HOR,LPHR,Horta Airport,38.51990128,-28.71590042,PT,PT-20
HOV,ENOV,"Ørsta-Volda Airport, Hovden",62.18000031,6.074100018,NO,NO-15
HOY,GB-0070,Hoy/Longhope Airfield,58.791779,-3.216076,GB,GB-SCT
HRK,UKHH,Kharkiv International Airport,49.92480087,36.29000092,UA,UA-63
HRT,EGXU,RAF Linton-On-Ouse,54.0489006,-1.252750039,GB,GB-ENG
HSK,LEHC,Huesca/Pirineos Airport,42.076099,-0.316667,ES,ES-AR
HTA,UIAA,Chita-Kadala Airport,52.026299,113.306,RU,RU-CHI
HUV,ESNH,Hudiksvall Airport,61.76810074,17.08069992,SE,SE-X
HUY,EGNJ,Humberside Airport,53.57440186,-0.350832999,GB,GB-ENG
HVG,ENHV,Valan Airport,71.00969696,25.98360062,NO,NO-20
HVK,BIHK,Hólmavík Airport,65.70469666,-21.69639969,IS,IS-4
HVM,BIHV,Krókstaðarmelar Airport,65.2664032,-20.84690094,IS,IS-5
HYC,EGTB,Wycombe Air Park,51.61169815,-0.80833298,GB,GB-ENG
HYV,EFHV,Hyvinkää Airfield,60.6544,24.8811,FI,FI-18
HZB,LFQT,Merville-Calonne Airport,50.61840057,2.642240047,FR,FR-HDF
HZK,BIHU,Húsavík Airport,65.952301,-17.426001,IS,IS-6
IAR,UUDL,Tunoshna Airport,57.56069946,40.15739822,RU,RU-YAR
IAS,LRIA,Ia?i Airport,47.17850113,27.62059975,RO,RO-IS
IBZ,LEIB,Ibiza Airport,38.8728981,1.37311995,ES,ES-PM
IDB,ESUE,Idre Airport,61.86970139,12.68939972,SE,SE-W
IDY,LFEY,Île d'Yeu Airport,46.71860123,-2.391109943,FR,FR-PDL
IEG,EPZG,Zielona Góra-Babimost Airport,52.13850021,15.7986002,PL,PL-LB
IES,EDAU,Riesa-Göhlis Airport,51.29360962,13.35611057,DE,DE-SN
IEV,UKKK,Kiev Zhuliany International Airport,50.40194,30.45194,UA,UA-32
IFJ,BIIS,Ísafjörður Airport,66.05809784,-23.13529968,IS,IS-4
IFO,UKLI,Ivano-Frankivsk International Airport,48.88420105,24.68610001,UA,UA-26
IGS,ETSI,Ingolstadt Manching Airport,48.71569824,11.5340004,DE,DE-BY
IGT,URMS,Magas Airport,43.32229996,45.01259995,RU,RU-IN
IIA,EIMN,Inishmaan Aerodrome,53.0929985,-9.568059921,IE,IE-G
IJK,USII,Izhevsk Airport,56.8280983,53.45750046,RU,RU-UD
ILD,LEDA,Lleida-Alguaire Airport,41.728185,0.535023,ES,ES-CT
ILH,ETIK,Illesheim Air Base,49.47389984,10.38809967,DE,DE-BY
ILY,EGPI,Islay Airport,55.68190002,-6.256669998,GB,GB-SCT
ILZ,LZZI,Žilina Airport,49.23149872,18.6135006,SK,SK-ZI
INI,LYNI,Nis Airport,43.337299,21.853701,RS,RS-20
INN,LOWI,Innsbruck Airport,47.260201,11.344,AT,AT-7
INQ,EIIR,Inisheer Aerodrome,53.06470108,-9.510899544,IE,IE-G
INV,EGPE,Inverness Airport,57.54249954,-4.047500134,GB,GB-SCT
IOA,LGIO,Ioannina Airport,39.69639969,20.82250023,GR,GR-33
IOM,EGNS,Isle of Man Airport,54.08330154,-4.623889923,IM,IM-U-A
IOR,EIIM,Inishmore Aerodrome,53.1067009,-9.653610229,IE,IE-G
ISC,EGHE,St. Mary's Airport,49.91329956,-6.291669846,GB,GB-ENG
ITU,UHSI,Iturup Airport,45.256389,147.95549,RU,RU-SAK
IVG,LYBR,Berane Airport,42.8390007,19.86199951,ME,ME-03
IVL,EFIV,Ivalo Airport,68.6072998,27.40530014,FI,FI-10
IWA,UUBI,Ivanovo South Airport,56.93939972,40.94079971,RU,RU-IVA
JAM,BG-JAM,Bezmer Air Base,42.45489883,26.35219955,BG,BG-28
JCA,FR-JCA,Croisette Heliport,43.5359993,7.037360191,FR,FR-PAC
JCU,GECE,Ceuta Heliport,35.89279938,-5.306389809,ES,ES-CE
JDP,LFPI,Paris Issy-les-Moulineaux Heliport,48.83330154,2.272779942,FR,FR-IDF
JER,EGJJ,Jersey Airport,49.207901,-2.195509911,JE,JE-U-A
JIK,LGIK,Ikaria Airport,37.68270111,26.3470993,GR,GR-84
JKG,ESGJ,Jönköping Airport,57.75759888,14.06869984,SE,SE-F
JKH,LGHI,Chios Island National Airport,38.34320068,26.1406002,GR,GR-85
JKL,LGKY,Kalymnos Airport,36.9632988,26.94059944,GR,GR-81
JMK,LGMK,Mikonos Airport,37.43510056,25.34810066,GR,GR-82
JNX,LGNX,Naxos Airport,37.08110046,25.36809921,GR,GR-82
JOE,EFJO,Joensuu Airport,62.662899,29.6075,FI,FI-13
JOK,UWKJ,Yoshkar-Ola Airport,56.70059967,47.90470123,RU,RU-ME
JSH,LGST,Sitia Airport,35.21609879,26.10129929,GR,GR-92
JSI,LGSK,Skiathos Island National Airport,39.17710114,23.50370026,GR,GR-43
JSY,LGSO,Syros Airport,37.42279816,24.95089912,GR,GR-82
JTR,LGSR,Santorini Airport,36.39920044,25.47929955,GR,GR-82
JTY,LGPL,Astypalaia Airport,36.57989883,26.37579918,GR,GR-81
JUI,EDWJ,Juist Airport,53.68111038,7.055832863,DE,DE-NI
JYV,EFJY,Jyväskylä Airport,62.399502,25.678301,FI,FI-08
KAJ,EFKI,Kajaani Airport,64.2855,27.6924,FI,FI-05
KAO,EFKS,Kuusamo Airport,65.987602,29.239401,FI,FI-14
KAU,EFKA,Kauhava Airfield,63.127102,23.051399,FI,FI-03
KBP,UKBB,Boryspil International Airport,50.34500122,30.8946991,UA,UA-32
KDL,EEKA,Kärdla Airport,58.99079895,22.83069992,EE,EE-39
KDY,RU-0200,Typliy Klyuch Airport,62.78900146,136.8549957,RU,RU-SA
KEF,BIKF,Keflavik International Airport,63.985001,-22.6056,IS,IS-2
KEL,EDHK,Kiel-Holtenau Airport,54.37944412,10.14527798,DE,DE-SH
KEM,EFKE,Kemi-Tornio Airport,65.77870178,24.58209991,FI,FI-10
KEV,EFHA,Halli Airport,61.856039,24.786686,FI,FI-08
KGD,UMKK,Khrabrovo Airport,54.88999939,20.59259987,RU,RU-KGD
KGO,UKKG,Kirovograd Airport,48.5428009,32.28499985,UA,UA-35
KGS,LGKO,Kos Airport,36.79330063,27.0916996,GR,GR-81
KHC,UKFK,Kerch Airport,45.37250137,36.40140152,UA,UA-43
KHE,UKOH,Kherson International Airport,46.6758,32.506401,UA,UA-65
KHJ,EFKJ,Kauhajoki Airfield,62.462502,22.393101,FI,FI-03
KHU,UA-0050,Kakhnovka Airfield,49.1342,33.4766,UA,UA-53
KID,ESMK,Kristianstad Airport,55.92169952,14.08549976,SE,SE-M
KIR,EIKY,Kerry Airport,52.18090057,-9.523779869,IE,IE-KY
KIT,LGKC,Kithira Airport,36.27429962,23.0170002,GR,GR-A1
KIV,LUKK,Chi?in?u International Airport,46.92770004,28.93099976,MD,MD-C
KJA,UNKL,Yemelyanovo Airport,56.172901,92.493301,RU,RU-KYA
KJK,EBKT,Wevelgem Airport,50.8172,3.20472,BE,BE-VWV
KKN,ENKR,Kirkenes Airport (Høybuktmoen),69.72579956,29.8913002,NO,NO-20
KKQ,USDP,Krasnoselkup Airport,65.717,82.455,RU,RU-YAN
KKY,EIKK,Kilkenny Airport,52.6507988,-7.296110153,IE,IE-KK
KLD,UUEM,Migalovo Air Base,56.8246994,35.75770187,RU,RU-TVE
KLF,UUBC,Grabtsevo Airport,54.54999924,36.3666687,RU,RU-KLU
KLR,ESMQ,Kalmar Airport,56.6855011,16.28759956,SE,SE-H
KLU,LOWK,Klagenfurt Airport,46.642502,14.3377,AT,AT-2
KLV,LKKV,Karlovy Vary International Airport,50.20299911,12.91499996,CZ,CZ-KA
KLX,LGKL,Kalamata Airport,37.06829834,22.02549934,GR,GR-17
KMW,UUBA,Kostroma Sokerkino Airport,57.7969017,41.01940155,RU,RU-KOS
KNF,EGYM,RAF Marham,52.648395,0.550692,GB,GB-ENG
KOI,EGPA,Kirkwall Airport,58.95780182,-2.904999971,GB,GB-SCT
KOK,EFKK,Kokkola-Pietarsaari Airport,63.721199,23.143101,FI,FI-07
KOQ,EDCK,Köthen Airport,51.7211113,11.95277786,DE,DE-ST
KPW,UHMK,Keperveem Airport,67.845001,166.139999,RU,RU-CHU
KRF,ESNK,Kramfors Sollefteå Airport,63.04859924,17.76889992,SE,SE-Y
KRH,EGKR,Redhill Aerodrome,51.21360016,-0.138611004,GB,GB-ENG
KRK,EPKK,Kraków John Paul II International Airport,50.077702,19.7848,PL,PL-MA
KRN,ESNQ,Kiruna Airport,67.8219986,20.33679962,SE,SE-BD
KRP,EKKA,Karup Airport,56.29750061,9.124629974,DK,DK-82
KRQ,UKCK,Kramatorsk Airport,48.70560074,37.62889862,UA,UA-14
KRR,URKK,Krasnodar Pashkovsky International Airport,45.03469849,39.17050171,RU,RU-KDA
KRS,ENCN,Kristiansand Airport,58.204201,8.08537,NO,NO-10
KSC,LZKZ,Košice Airport,48.6631012,21.24110031,SK,SK-KI
KSD,ESOK,Karlstad Airport,59.44469833,13.33740044,SE,SE-S
KSF,EDVK,Kassel-Calden Airport,51.417273,9.384967,DE,DE-HE
KSJ,LGKS,Kasos Airport,35.42139816,26.90999985,GR,GR-81
KSK,ESKK,Karlskoga Airport,59.34590149,14.49590015,SE,SE-T
KSO,LGKA,Kastoria National Airport,40.44630051,21.28219986,GR,GR-56
KSU,ENKB,Kristiansund Airport (Kvernberget),63.11180115,7.824520111,NO,NO-15
KSZ,ULKK,Kotlas Airport,61.2358017,46.69749832,RU,RU-ARK
KTQ,EFIT,Kitee Airport,62.1661,30.073601,FI,FI-13
KTT,EFKT,Kittilä Airport,67.7009964,24.84679985,FI,FI-10
KTW,EPKT,Katowice International Airport,50.4743,19.08,PL,PL-SL
KUF,UWWW,Kurumoch International Airport,53.50490189,50.16429901,RU,RU-SAM
KUN,EYKA,Kaunas International Airport,54.96390152,24.08480072,LT,LT-KU
KUO,EFKU,Kuopio Airport,63.007099,27.7978,FI,FI-15
KVA,LGKV,Alexander the Great International Airport,40.91329956,24.61919975,GR,GR-55
KVB,ESGR,Skövde Airport,58.45640182,13.97270012,SE,SE-Q
KVK,ULMK,Kirovsk-Apatity Airport,67.46330261,33.5882988,RU,RU-MUR
KVM,UHMO,Markovo Airport,64.667,170.417007,RU,RU-CHU
KVO,LYKV,Morava Airport,43.818298,20.5872,RS,RS-18
KVR,UHWK,Kavalerovo Airport,44.2726,135.029,RU,RU-PRI
KVX,USKK,Pobedilovo Airport,58.50329971,49.34830093,RU,RU-KIR
KWG,UKDR,Kryvyi Rih International Airport,48.04330063,33.20999908,UA,UA-12
KZG,ETIN,Flugplatz Kitzingen,49.743099,10.2006,DE,DE-BY
KZI,LGKZ,Filippos Airport,40.28609848,21.84079933,GR,GR-58
KZN,UWKD,Kazan International Airport,55.60620117,49.27870178,RU,RU-TA
KZS,LGKJ,Kastelorizo Airport,36.14170074,29.57640076,GR,GR-81
LAI,LFRO,Lannion-Côte de Granit Airport,48.754398,-3.47166,FR,FR-BRE
LBA,EGNM,Leeds Bradford Airport,53.86589813,-1.660570025,GB,GB-ENG
LBC,EDHL,Lübeck Blankensee Airport,53.80540085,10.71920013,DE,DE-SH
LBG,LFPB,Paris-Le Bourget Airport,48.9693985,2.441390038,FR,FR-IDF
LBI,LFCI,Albi-Le Séquestre Airport,43.91389847,2.113059998,FR,FR-OCC
LBY,LFRE,La Baule-Escoublac Airport,47.28939819,-2.346390009,FR,FR-PDL
LCC,LIBN,Lecce Galatina Air Base,40.239201,18.133301,IT,IT-75
LCG,LECO,A Coruña Airport,43.302101,-8.37726,ES,ES-GA
LCJ,EPLL,?ód? W?adys?aw Reymont Airport,51.72190094,19.3980999,PL,PL-LD
LCV,LIQL,Lucca-Tassignano Airport,43.825825,10.577928,IT,IT-52
LCY,EGLC,London City Airport,51.505299,0.055278,GB,GB-ENG
LDE,LFBT,Tarbes-Lourdes-Pyrénées Airport,43.17869949,-0.006439,FR,FR-OCC
LDG,ULAL,Leshukonskoye Airport,64.89600372,45.72299957,RU,RU-ARK
LDK,ESGL,Lidköping-Hovby Airport,58.4655,13.1744,SE,SE-Q
LDV,LFRJ,Landivisiau Air Base,48.53030014,-4.151639938,FR,FR-BRE
LDY,EGAE,City of Derry Airport,55.0428009,-7.161109924,GB,GB-NIR
LED,ULLI,Pulkovo Airport,59.8003006,30.26250076,RU,RU-SPE
LEH,LFOH,Le Havre Octeville Airport,49.53390121,0.088055998,FR,FR-NOR
LEI,LEAM,Almería International Airport,36.84389877,-2.370100021,ES,ES-AN
LEJ,EDDP,Leipzig/Halle Airport,51.423889,12.236389,DE,DE-SN
LEN,LELN,Leon Airport,42.5890007,-5.655560017,ES,ES-CL
LEQ,EGHC,Land's End Airport,50.102798,-5.67056,GB,GB-ENG
LEU,LESU,Pirineus - la Seu d'Urgel Airport,42.3386,1.40917,ES,ES-CT
LEY,EHLE,Lelystad Airport,52.4603,5.52722,NL,NL-FL
LGG,EBLG,Liège Airport,50.63740158,5.443220139,BE,BE-WLG
LGO,EDWL,Langeoog Airport,53.74250031,7.497777939,DE,DE-NI
LGW,EGKK,London Gatwick Airport,51.148102,-0.190278,GB,GB-ENG
LHA,EDTL,Lahr Airport,48.36930084,7.827720165,DE,DE-BW
LHR,EGLL,London Heathrow Airport,51.4706,-0.461941,GB,GB-ENG
LID,EHVB,Valkenburg Naval Air Base,52.16609955,4.41794014,NL,NL-ZH
LIG,LFBL,Limoges Airport,45.8628006,1.179440022,FR,FR-NAQ
LIL,LFQQ,Lille-Lesquin Airport,50.563332,3.086886,FR,FR-HDF
LIN,LIML,Milano Linate Airport,45.445099,9.27674,IT,IT-25
LIS,LPPT,Humberto Delgado Airport (Lisbon Portela Airport),38.7813,-9.13592,PT,PT-11
LJU,LJLJ,Ljubljana Jože Pu?nik Airport,46.223701,14.4576,SI,SI-061
LKL,ENNA,Banak Airport,70.06880188,24.9734993,NO,NO-20
LKN,ENLK,Leknes Airport,68.15249634,13.6093998,NO,NO-18
LKZ,EGUL,RAF Lakenheath,52.40930176,0.56099999,GB,GB-ENG
LLA,ESPA,Luleå Airport,65.54380035,22.12199974,SE,SE-BD
LME,LFRM,Le Mans-Arnage Airport,47.94860077,0.201666996,FR,FR-PDL
LMO,EGQS,RAF Lossiemouth,57.7052002,-3.339169979,GB,GB-SCT
LMP,LICD,Lampedusa Airport,35.497898,12.6181,IT,IT-82
LNX,XUBS,Smolensk North Airport,54.824,32.025,RU,RU-SMO
LNZ,LOWL,Linz Hörsching Airport,48.2332,14.1875,AT,AT-4
LPA,GCLP,Gran Canaria Airport,27.93190002,-15.38659954,ES,ES-CN
LPI,ESSL,Linköping City Airport,58.40620041,15.68050003,SE,SE-E
LPK,UUOL,Lipetsk Airport,52.70280075,39.53779984,RU,RU-LIP
LPL,EGGP,Liverpool John Lennon Airport,53.33359909,-2.849720001,GB,GB-ENG
LPP,EFLP,Lappeenranta Airport,61.044601,28.144743,FI,FI-02
LPX,EVLA,Liep?ja International Airport,56.51750183,21.09690094,LV,LV-LE
LPY,LFHP,Le Puy-Loudes Airport,45.08069992,3.7628901,FR,FR-ARA
LRA,LGLR,Larisa Air Base,39.650253,22.4655,GR,GR-42
LRH,LFBH,La Rochelle-Île de Ré Airport,46.17919922,-1.195279956,FR,FR-NAQ
LRS,LGLE,Leros Airport,37.184898,26.800301,GR,GR-81
LRT,LFRH,Lorient South Brittany (Bretagne Sud) Airport,47.76060104,-3.440000057,FR,FR-BRE
LSI,EGPB,Sumburgh Airport,59.87889862,-1.295560002,GB,GB-SCT
LSO,LFOO,Les Sables-d'Olonne Talmont Airport,46.47689819,-1.722779989,FR,FR-PDL
LSZ,LDLO,Lošinj Island Airport,44.56579971,14.39309978,HR,HR-08
LTN,EGGW,London Luton Airport,51.87469864,-0.368333012,GB,GB-ENG
LTQ,LFAT,Le Touquet-Côte d'Opale Airport,50.51739883,1.620589972,FR,FR-HDF
LTR,EILT,Letterkenny Airfield,54.951302,-7.67283,IE,IE-DL
LTT,LFTZ,La Môle Airport,43.205399,6.482,FR,FR-PAC
LUE,LZLU,Lu?enec Airport,48.33940125,19.73579979,SK,SK-BC
LUG,LSZA,Lugano Airport,46.00429916,8.910579681,CH,CH-TI
LUX,ELLX,Luxembourg-Findel International Airport,49.6233333,6.2044444,LU,LU-L
LUZ,LUZ,Lublin Airport,51.240278,22.713611,PL,PL-LU
LVA,LFOV,Laval-Entrammes Airport,48.03139877,-0.742986023,FR,FR-PDL
LWK,EGET,Lerwick / Tingwall Airport,60.19219971,-1.243610024,GB,GB-SCT
LWO,UKLL,Lviv International Airport,49.8125,23.95610046,UA,UA-46
LWR,EHLW,Leeuwarden Air Base,53.22859955,5.760560036,NL,NL-FR
LXS,LGLM,Limnos Airport,39.917099,25.23629951,GR,GR-83
LYC,ESNL,Lycksele Airport,64.5483017,18.71619987,SE,SE-AC
LYE,EGDL,RAF Lyneham,51.5051,-1.99343,GB,GB-ENG
LYM,EGMK,Lympne Airport,51.08,1.013,GB,GB-ENG
LYN,LFLY,Lyon-Bron Airport,45.72719955,4.944270134,FR,FR-ARA
LYR,ENSB,"Svalbard Airport, Longyear",78.24610138,15.46560001,NO,NO-21
LYS,LFLL,Lyon Saint-Exupéry Airport,45.725556,5.081111,FR,FR-ARA
LYX,EGMD,Lydd Airport,50.95610046,0.939167023,GB,GB-ENG
MAD,LEMD,Adolfo Suárez Madrid–Barajas Airport,40.471926,-3.56264,ES,ES-M
MAH,LEMH,Menorca Airport,39.86259842,4.218649864,ES,ES-PM
MAN,EGCC,Manchester Airport,53.35369873,-2.274950027,GB,GB-ENG
MBX,LJMB,Maribor Airport,46.47990036,15.68610001,SI,SI-070
MCM,LNMC,Monaco Heliport,43.725601,7.41917,MC,MC-U-A
MCQ,LHMC,Miskolc Airport,48.13690186,20.79140091,HU,HU-BZ
MCU,LFBK,Montluçon-Guéret Airport,46.22259903,2.363960028,FR,FR-NAQ
MCX,URML,Uytash Airport,42.81679916,47.65230179,RU,RU-DA
MEH,ENMH,Mehamn Airport,71.02970123,27.82670021,NO,NO-20
MEN,LFNB,Mende-Brenoux Airfield,44.502102,3.53282,FR,FR-OCC
MFX,LFKX,Méribel Altiport,45.407003,6.577942,FR,FR-ARA
MGL,EDLN,Mönchengladbach Airport,51.230278,6.504444,DE,DE-NW
MHG,EDFM,Mannheim-City Airport,49.473057,8.514167,DE,DE-BW
MHP,UMMM,Minsk 1 Airport,53.864498,27.5397,BY,BY-MI
MHQ,EFMA,Mariehamn Airport,60.12220001,19.89819908,FI,FI-01
MHZ,EGUN,RAF Mildenhall,52.36190033,0.486405998,GB,GB-ENG
MIK,EFMI,Mikkeli Airport,61.6866,27.201799,FI,FI-04
MJF,ENMS,Mosjøen Airport (Kjærstad),65.78399658,13.21490002,NO,NO-18
MJT,LGMT,Mytilene International Airport,39.05670166,26.59830093,GR,GR-83
MJV,LELC,San Javier Airport,37.77500153,-0.812389016,ES,ES-MU
MKA,LKMR,Mariánské Lázn? Airport,49.92279816,12.72469997,CZ,CZ-KA
MLA,LMML,Malta International Airport,35.857498,14.4775,MT,MT-25
MLN,GEML,Melilla Airport,35.27980042,-2.956259966,ES,ES-ML
MLO,LGML,Milos Airport,36.696899,24.4769,GR,GR-82
MME,EGNV,Durham Tees Valley Airport,54.50920105,-1.429409981,GB,GB-ENG
MMK,ULMM,Murmansk Airport,68.78170013,32.75080109,RU,RU-MUR
MMX,ESMS,Malmö Sturup Airport,55.53630536,13.37619781,SE,SE-M
MOL,ENML,Molde Airport,62.74470139,7.262499809,NO,NO-15
MPL,LFMT,Montpellier-Méditerranée Airport,43.57619858,3.963010073,FR,FR-OCC
MPW,UKCM,Mariupol International Airport,47.0760994,37.44960022,UA,UA-14
MQF,USCM,Magnitogorsk International Airport,53.39310074,58.75569916,RU,RU-BA
MQJ,UEMA,Moma Airport,66.450861,143.261551,RU,RU-SA
MQN,ENRA,"Mo i Rana Airport, Røssvoll",66.36389923,14.30140018,NO,NO-18
MRS,LFML,Marseille Provence Airport,43.43927192,5.221424103,FR,FR-PAC
MRV,URMM,Mineralnyye Vody Airport,44.22510147,43.08190155,RU,RU-STA
MRW,EKMB,Lolland Falster Maribo Airport,54.699299,11.4401,DK,DK-85
MSE,EGMH,Kent International Airport,51.342201,1.34611,GB,GB-ENG
MSQ,UMMS,Minsk National Airport,53.88249969,28.03070068,BY,BY-MI
MST,EHBK,Maastricht Aachen Airport,50.911701,5.77014,NL,NL-LI
MUC,EDDM,Munich Airport,48.353802,11.7861,DE,DE-BY
MUC,XMUC,Flughafen München-Riem,48.13779831,11.69029999,DE,DE-BY
MVA,BIRL,Reykjahlíð Airport,65.65579987,-16.91810036,IS,IS-6
MVQ,UMOO,Mogilev Airport,53.95489883,30.0951004,BY,BY-MA
MVV,LFHM,Megève Altiport,45.823005,6.649406,FR,FR-ARA
MXN,LFRU,Morlaix-Ploujean Airport,48.60319901,-3.815779924,FR,FR-BRE
MXP,LIMC,Malpensa International Airport,45.6306,8.72811,IT,IT-25
MXR,UA-0049,Myrhorod Air Base,49.932,33.641,UA,UA-53
MXX,ESKM,Mora Airport,60.957901,14.5114,SE,SE-W
MZM,LFSF,Metz-Frescaty (BA 128) Air Base,49.071701,6.13167,FR,FR-GES
NAL,URMN,Nalchik Airport,43.51290131,43.63660049,RU,RU-KB
NAP,LIRN,Naples International Airport,40.886002,14.2908,IT,IT-72
NBC,UWKE,Begishevo Airport,55.56470108,52.09249878,RU,RU-TA
NCE,LFMN,Nice-Côte d'Azur Airport,43.65840149,7.215869904,FR,FR-PAC
NCL,EGNT,Newcastle Airport,55.03749847,-1.691669941,GB,GB-ENG
NCY,LFLP,Annecy-Haute-Savoie-Mont Blanc Airport,45.9308333,6.1063889,FR,FR-ARA
NDY,EGES,Sanday Airport,59.25030136,-2.576669931,GB,GB-SCT
NEF,UWUF,Neftekamsk Airport,56.10689926,54.34719849,RU,RU-BA
NEI,UHWT,Terney Airport,45.0825,136.5912,RU,RU-PRI
NGK,RU-0025,Nogliki Airport,51.780102,143.139008,RU,RU-SAK
NHT,EGWU,RAF Northolt,51.5530014,-0.418166995,GB,GB-ENG
NIT,LFBN,Niort-Souché Airport,46.313477,-0.394529,FR,FR-NAQ
NLI,UHNN,Nikolayevsk-na-Amure Airport,53.154999,140.649994,RU,RU-KHA
NLV,UKON,Mykolaiv International Airport,47.05789948,31.9197998,UA,UA-48
NNM,ULAM,Naryan Mar Airport,67.63999939,53.12189865,RU,RU-NEN
NNR,EICA,Connemara Regional Airport,53.2303009,-9.467780113,IE,IE-G
NOC,EIKN,Ireland West Knock Airport,53.91030121,-8.818490028,IE,IE-MO
NOD,EDWS,Norden-Norddeich Airport,53.63305664,7.190278053,DE,DE-NI
NOR,BINF,Norðfjörður Airport,65.13189697,-13.74639988,IS,IS-7
NOZ,UNWW,Spichenkovo Airport,53.811401,86.877197,RU,RU-KEM
NQT,EGBN,Nottingham Airport,52.91999817,-1.079169989,GB,GB-ENG
NQY,EGHQ,Newquay Cornwall Airport,50.44060135,-4.995409966,GB,GB-ENG
NRD,EDWY,Norderney Airport,53.706944,7.23,DE,DE-NI
NRK,ESSP,Norrköping Airport,58.5862999,16.25060081,SE,SE-E
NRL,EGEN,North Ronaldsay Airport,59.36750031,-2.434439898,GB,GB-SCT
NRN,EDLV,Weeze Airport,51.60240173,6.142169952,DE,DE-NW
NSY,LICZ,Sigonella Navy Air Base,37.401699,14.9224,IT,IT-82
NTB,ENNO,Notodden Airport,59.565701,9.21222,NO,NO-08
NTE,LFRS,Nantes Atlantique Airport,47.15319824,-1.610730052,FR,FR-PDL
NUE,EDDN,Nuremberg Airport,49.498699,11.078056,DE,DE-BY
NVK,ENNK,Narvik Framnes Airport,68.436897,17.3867,NO,NO-18
NVR,ULNN,Novgorod Airport,58.49330139,31.24169922,RU,RU-NGR
NVS,LFQG,Nevers-Fourchambault Airport,47.00260162,3.113329887,FR,FR-BFC
NWI,EGSH,Norwich International Airport,52.67580032,1.282780051,GB,GB-ENG
NYA,USHN,Nyagan Airport,62.110001,65.614998,RU,RU-KHM
NYO,ESKN,Stockholm Skavsta Airport,58.78860092,16.91220093,SE,SE-D
NYR,UENN,Nyurba Airport,63.294998,118.336998,RU,RU-SA
OBF,EDMO,Oberpfaffenhofen Airport,48.081402,11.2831,DE,DE-BY
OBN,EGEO,Oban Airport,56.46350098,-5.399670124,GB,GB-SCT
OBS,LFHO,Aubenas-Ardèche Méridional Airport,44.544203,4.372192,FR,FR-ARA
ODB,LEBA,Córdoba Airport,37.84199905,-4.848879814,ES,ES-AN
ODE,EKOD,Odense Airport,55.47669983,10.33090019,DK,DK-83
ODH,EGVO,RAF Odiham,51.23410034,-0.942825019,GB,GB-ENG
ODS,UKOO,Odessa International Airport,46.42679977,30.67650032,UA,UA-51
OEL,UUOR,Oryol Yuzhny Airport,52.93470001,36.00220108,RU,RU-ORL
OER,ESNO,Örnsköldsvik Airport,63.40829849,18.98999977,SE,SE-Y
OFJ,BIOF,Ólafsfjörður Airport,66.08329773,-18.66670036,IS,IS-6
OGZ,URMO,Beslan Airport,43.20510101,44.60660172,RU,RU-SE
OHD,LWOH,Ohrid St. Paul the Apostle Airport,41.18,20.7423,MK,MK-003
OHR,EDXY,Wyk auf Föhr Airport,54.68444443,8.52833271,DE,DE-SH
OKH,EGXJ,RAF Cottesmore,52.735699,-0.648769,GB,GB-ENG
OKT,UWUK,Oktyabrskiy Airport,54.43999863,53.38830185,RU,RU-TA
OLA,ENOL,Ørland Airport,63.69889832,9.604000092,NO,NO-16
OLB,LIEO,Olbia Costa Smeralda Airport,40.898701,9.51763,IT,IT-88
OLI,BIRF,Rif Airport,64.91139984,-23.82309914,IS,IS-3
OLO,LKOL,Olomouc Airport,49.587799,17.2108,CZ,CZ-OL
OLZ,UEMO,Olyokminsk Airport,60.397499,120.471001,RU,RU-SA
OMO,LQMO,Mostar International Airport,43.28290176,17.84589958,BA,BA-BIH
OMR,LROD,Oradea International Airport,47.02529907,21.90250015,RO,RO-BH
ONK,UERO,Olenyok Airport,68.514999,112.480003,RU,RU-SA
OPA,BIKP,Kópasker Airport,66.31079865,-16.4666996,IS,IS-6
OPO,LPPR,Francisco de Sá Carneiro Airport,41.24810028,-8.681389809,PT,PT-13
ORB,ESOE,Örebro Airport,59.22370148,15.03800011,SE,SE-T
ORE,LFOZ,Orléans – Saint-Denis-de-l'Hôtel Airport,47.8969,2.16333,FR,FR-CVL
ORK,EICK,Cork Airport,51.84130096,-8.491109848,IE,IE-C
ORM,EGBK,Sywell Aerodrome,52.30530167,-0.793056011,GB,GB-ENG
ORY,LFPO,Paris-Orly Airport,48.7233333,2.3794444,FR,FR-IDF
OSD,ESNZ,Åre Östersund Airport,63.19440079,14.50030041,SE,SE-Z
OSF,UUMO,Ostafyevo International Airport,55.511667,37.507222,RU,RU-MOS
OSI,LDOS,Osijek Airport,45.46269989,18.81019974,HR,HR-14
OSK,ESMO,Oskarshamn Airport,57.350498,16.497999,SE,SE-H
OSL,ENGM,Oslo Gardermoen Airport,60.19390106,11.10039997,NO,NO-02
OSP,EPSK,Redzikowo Air Base,54.47890091,17.10750008,PL,PL-PM
OSR,LKMT,Ostrava Leos Janá?ek Airport,49.69630051,18.11109924,CZ,CZ-MO
OST,EBOS,Ostend-Bruges International Airport,51.19889832,2.862220049,BE,BE-VWV
OSW,UWOR,Orsk Airport,51.07249832,58.59560013,RU,RU-ORE
OSY,ENNM,Namsos Høknesøra Airport,64.47219849,11.57859993,NO,NO-17
OSZ,EPKO,Koszalin Zegrze Pomorskie,54.0425,16.2656,PL,PL-ZP
OTP,LROP,Henri Coand? International Airport,44.5711111,26.085,RO,RO-B
OUK,GB-OUK,Outer Skerries Airport,60.4252,-0.75,GB,GB-SCT
OUL,EFOU,Oulu Airport,64.930099,25.354601,FI,FI-14
OVD,LEAS,Asturias Airport,43.56359863,-6.034619808,ES,ES-O
OXF,EGTK,Oxford (Kidlington) Airport,51.8368988,-1.320000052,GB,GB-ENG
OZH,UKDE,Zaporizhzhia International Airport,47.86700058,35.31570053,UA,UA-23
OZP,LEMO,Moron Air Base,37.17490005,-5.615940094,ES,ES-AN
PAD,EDLP,Paderborn Lippstadt Airport,51.61410141,8.616319656,DE,DE-NW
PAS,LGPA,Paros National Airport,37.020495,25.113195,GR,GR-82
PDL,LPPD,João Paulo II Airport,37.74119949,-25.69790077,PT,PT-20
PDV,LBPD,Plovdiv International Airport,42.067799,24.8508,BG,BG-16
PED,LKPD,Pardubice Airport,50.01340103,15.73859978,CZ,CZ-PA
PEE,USPP,Bolshoye Savino Airport,57.91450119,56.02119827,RU,RU-PER
PEF,EDCP,Peenemünde Airport,54.15777969,13.77444363,DE,DE-MV
PEG,LIRZ,Perugia San Francesco d'Assisi – Umbria International Airport,43.095901,12.5132,IT,IT-55
PES,ULPB,Petrozavodsk Airport,61.8852005,34.15470123,RU,RU-KR
PEV,LHPP,Pécs-Pogány Airport,45.990898,18.240996,HU,HU-BA
PEX,UUYP,Pechora Airport,65.12110138,57.13079834,RU,RU-KO
PEZ,UWPP,Penza Airport,53.11059952,45.02109909,RU,RU-PNZ
PFJ,BIPA,Patreksfjörður Airport,65.555801,-23.965,IS,IS-4
PGF,LFMP,Perpignan-Rivesaltes (Llabanère) Airport,42.74039841,2.87067008,FR,FR-OCC
PGX,LFBX,Périgueux-Bassillac Airport,45.19810104,0.81555599,FR,FR-NAQ
PHM,DE-0428,Böblingen Flugfeld,48.689544,8.996193,DE,DE-BW
PHM,DE-0429,Böblingen Flugfeld,48.689544,8.996193,DE,DE-BW
PIK,EGPK,Glasgow Prestwick Airport,55.50939941,-4.586669922,GB,GB-SCT
PIS,LFBI,Poitiers-Biard Airport,46.58769989,0.306665987,FR,FR-NAQ
PIX,LPPI,Pico Airport,38.554298,-28.441299,PT,PT-20
PJA,ESUP,Pajala Airport,67.24559784,23.06889915,SE,SE-BD
PKH,LGHL,Porto Cheli Airport,37.29891,23.148923,GR,GR-11
PKV,ULOO,Pskov Airport,57.78390121,28.39559937,RU,RU-PSK
PLH,EGHD,Plymouth City Airport,50.422798,-4.10583,GB,GB-ENG
PLQ,EYPA,Palanga International Airport,55.97320175,21.09390068,LT,LT-KL
PLV,UKHP,Suprunovka Airport,49.5685997,34.39720154,UA,UA-53
PME,EGVF,Fleetlands Heliport,50.83530045,-1.169170022,GB,GB-ENG
PMF,LIMP,Parma Airport,44.824501,10.2964,IT,IT-45
PMI,LEPA,Palma De Mallorca Airport,39.55170059,2.738810062,ES,ES-PM
PMO,LICJ,Falcone–Borsellino Airport,38.175999,13.091,IT,IT-82
PNA,LEPP,Pamplona Airport,42.77000046,-1.646329999,ES,ES-NA
PNL,LICG,Pantelleria Airport,36.816502,11.9689,IT,IT-82
PNV,EYPP,Panev?žys Air Base,55.72940063,24.46080017,LT,LT-PN
POR,EFPO,Pori Airport,61.4617,21.799999,FI,FI-17
POV,LZPW,Prešov Air Base,49.02970123,21.31559944,SK,SK-PV
POW,LJPZ,Portoroz Airport,45.47340012,13.61499977,SI,SI-090
POX,LFPT,Aérodrome de Pontoise - Cormeilles en Vexin,49.096667,2.040833,FR,FR-IDF
POZ,EPPO,Pozna?-?awica Airport,52.42100143,16.82629967,PL,PL-WP
PPW,EGEP,Papa Westray Airport,59.35169983,-2.900279999,GB,GB-SCT
PRG,LKPR,Václav Havel Airport Prague,50.1008,14.26,CZ,CZ-PR
PRM,LPPM,Portimão Airport,37.1493,-8.58396,PT,PT-08
PRN,BKPR,Priština International Airport,42.5728,21.035801,XK,XK-01
PRP,LFKO,Propriano Airport,41.66059875,8.889749527,FR,FR-COR
PRV,LKPO,P?erov Air Base,49.42580032,17.40469933,CZ,CZ-OL
PSA,LIRP,Pisa International Airport,43.683899,10.3927,IT,IT-52
PSH,EDXO,St. Peter-Ording Airport,54.30888748,8.686944008,DE,DE-SH
PSL,EGPT,Perth/Scone Airport,56.43920135,-3.372220039,GB,GB-SCT
PSR,LIBP,Pescara International Airport,42.431702,14.1811,IT,IT-65
PSV,GB-PSV,Papa Stour Airport,60.321701,-1.69306,GB,GB-SCT
PUF,LFBP,Pau Pyrénées Airport,43.38000107,-0.41861099,FR,FR-NAQ
PUY,LDPL,Pula Airport,44.89350128,13.9222002,HR,HR-18
PVK,LGPZ,Aktion National Airport,38.92549896,20.76530075,GR,GR-34
PVS,UHMD,Provideniya Bay Airport,64.37809753,-173.2429962,RU,RU-CHU
PXO,LPPS,Porto Santo Airport,33.07339859,-16.35000038,PT,PT-30
PYR,LGAD,Andravida Air Base,37.9207,21.292601,GR,GR-14
PZE,EGHK,Penzance Heliport,50.128101,-5.51845,GB,GB-ENG
PZY,LZPP,Pieš?any Airport,48.62519836,17.82839966,SK,SK-TA
QAQ,LIAP,L'Aquila–Preturo Airport,42.379902,13.3092,IT,IT-65
QCY,EGXC,RAF Coningsby,53.0929985,-0.166014001,GB,GB-ENG
QEO,EPKW,Bielsko-Bialo Kaniow Airfield,49.93999863,19.02199936,PL,PL-SL
QHU,EDXJ,Husum-Schwesing Airport,54.50999832,9.138333321,DE,DE-SH
QKX,ENKA,Kautokeino Air Base,69.04029846,23.0340004,NO,NO-20
QLF,EFLA,Lahti Vesivehmaa Airport,61.144199,25.693501,FI,FI-16
QLP,LIQW,Sarzana-Luni Air Base,44.088001,9.98795,IT,IT-42
QLR,LPMR,Monte Real Air Base,39.828335,-8.8875,PT,PT-10
QLT,LIRL,Latina Air Base,41.5424,12.909,IT,IT-62
QNC,LSGN,Neuchatel Airport,46.95750046,6.864719868,CH,CH-NE
QND,LYNS,Cenej Airport,45.385799,19.839199,RS,RS-06
QNJ,LFLI,Annemasse Airport,46.19200134,6.268390179,FR,FR-ARA
QPA,LIPU,Padova Airport,45.395802,11.8479,IT,IT-34
QRT,LIQN,Rieti Airport,42.4272,12.8517,IT,IT-62
QSA,LELL,Sabadell Airport,41.52090073,2.105079889,ES,ES-CT
QSR,LIRI,Salerno Costa d'Amalfi Airport,40.620399,14.9113,IT,IT-72
QUG,EGHR,Goodwood Aerodrome,50.859402,-0.759167,GB,GB-ENG
QUY,EGUY,RAF Wyton,52.35720062,-0.107832998,GB,GB-ENG
QYD,EPOK,Oksywie Military Air Base,54.57970047,18.51720047,PL,PL-PM
RAN,LIDR,Ravenna Airport,44.36391,12.224978,IT,IT-45
RBM,EDMS,Straubing Airport,48.90083313,12.51666737,DE,DE-BY
RCO,LFDN,Rochefort-Saint-Agnant (BA 721) Airport,45.88779831,-0.983056009,FR,FR-NAQ
RCS,EGTO,Rochester Airport,51.35189819,0.503332973,GB,GB-ENG
RDO,EPRA,Radom Airport,51.3891983,21.21330071,PL,PL-MZ
RDZ,LFCR,Rodez-Marcillac Airport,44.40790176,2.482670069,FR,FR-OCC
REB,EDAX,Rechlin-Lärz Airport,53.30638886,12.75222206,DE,DE-MV
REG,LICR,Reggio Calabria Airport,38.071201,15.6516,IT,IT-78
REN,UWOO,Orenburg Central Airport,51.79579926,55.45669937,RU,RU-ORE
RET,ENRS,Røst Airport,67.52780151,12.10330009,NO,NO-18
REU,LERS,Reus Air Base,41.1473999,1.167170048,ES,ES-CT
RFN,BIRG,Raufarhöfn Airport,66.40640259,-15.91829967,IS,IS-6
RGS,LEBG,Burgos Airport,42.357601,-3.62076,ES,ES-CL
RHA,BIRE,Reykhólar Airport,65.45262909,-22.20611572,IS,IS-4
RHE,LFSR,Reims-Champagne (BA 112) Air Base,49.310001,4.05,FR,FR-GES
RHO,LGRP,Diagoras Airport,36.40539932,28.08620071,GR,GR-81
RIX,EVRA,Riga International Airport,56.92359924,23.97109985,LV,LV-RIX
RJK,LDRI,Rijeka Airport,45.21689987,14.5703001,HR,HR-08
RJL,LELO,Logroño-Agoncillo Airport,42.46095349,-2.322235107,ES,ES-LO
RKE,EKRK,Copenhagen Roskilde Airport,55.58560181,12.13140011,DK,DK-85
RKV,BIRK,Reykjavik Airport,64.12999725,-21.94059944,IS,IS-1
RLG,ETNL,Rostock-Laage Airport,53.91820145,12.27830029,DE,DE-MV
RMI,LIPR,Federico Fellini International Airport,44.020302,12.6117,IT,IT-45
RMS,ETAR,Ramstein Air Base,49.43690109,7.600279808,DE,DE-RP
RMU,RMU,Región de Murcia International Airport,37.803,-1.125,ES,ES-MU
RNB,ESDF,Ronneby Airport,56.26670074,15.26500034,SE,SE-K
RNE,LFLO,Roanne-Renaison Airport,46.05830002,4.00138998,FR,FR-ARA
RNN,EKRN,Bornholm Airport,55.06330109,14.75959969,DK,DK-84
RNS,LFRN,Rennes-Saint-Jacques Airport,48.0695,-1.73479,FR,FR-BRE
ROU,LBRS,Ruse Airport,43.69480133,26.05669975,BG,BG-18
ROV,URRP,Platov International Airport,47.493888,39.924722,RU,RU-ROS
ROZ,LERT,Rota Naval Station Airport,36.64519882,-6.349460125,ES,ES-AN
RRS,ENRO,Røros Airport,62.57839966,11.34230042,NO,NO-16
RTM,EHRD,Rotterdam The Hague Airport,51.956902,4.43722,NL,NL-ZH
RTW,UWSS,Saratov Central Airport,51.56499863,46.04669952,RU,RU-SAR
RVH,ULSS,Rzhevka Airport,59.97999954,30.5855999,RU,RU-LEN
RVI,URRR,Rostov-on-Don Airport,47.258203,39.8181,RU,RU-ROS
RVK,ENRM,"Rørvik Airport, Ryum",64.83830261,11.14610004,NO,NO-17
RVN,EFRO,Rovaniemi Airport,66.56479645,25.83040047,FI,FI-10
RWN,UKLR,Rivne International Airport,50.60710144,26.14159966,UA,UA-19
RYB,UUBK,Staroselye Airport,58.10419846,38.9294014,RU,RU-YAR
RYG,ENRY,"Moss Airport, Rygge",59.378817,10.785439,NO,NO-01
RYN,LFCY,Royan-Médis Airport,45.62810135,-0.972500026,FR,FR-NAQ
RZE,EPRZ,Rzeszów-Jasionka Airport,50.110001,22.018999,PL,PL-PK
RZH,UIKP,Preobrazheniye Airport,42.921698,133.904438,RU,RU-PRI
RZN,UUWR,Turlatovo Airport,54.55590057,39.85520172,RU,RU-RYA
SAK,BIKR,Sauðárkrókur Airport,65.73169708,-19.57279968,IS,IS-5
SAY,LIQS,Siena-Ampugnano Airport,43.256302,11.255,IT,IT-52
SBK,LFRT,Saint-Brieuc-Armor Airport,48.5378,-2.85444,FR,FR-BRE
SBT,USDA,Sabetta International Airport,71.219167,72.052222,RU,RU-YAN
SBZ,LRSB,Sibiu International Airport,45.78559875,24.09129906,RO,RO-SB
SCN,EDDR,Saarbrücken Airport,49.21459961,7.109509945,DE,DE-SL
SCP,LFNC,Mont-Dauphin - St-Crépin Airport,44.701698,6.60028,FR,FR-PAC
SCQ,LEST,Santiago de Compostela Airport,42.89630127,-8.415140152,ES,ES-GA
SCR,SE-0016,Scandinavian Mountains Airport,61.158393,12.842503,SE,SE-W
SCS,EGPM,Scatsta Airport,60.43280029,-1.296110034,GB,GB-SCT
SCV,LRSV,Suceava Stefan cel Mare Airport,47.6875,26.35409927,RO,RO-SV
SCW,UUYY,Syktyvkar Airport,61.64699936,50.8451004,RU,RU-KO
SDL,ESNN,Sundsvall-Härnösand Airport,62.52809906,17.44389915,SE,SE-Y
SDN,ENSD,Sandane Airport (Anda),61.83000183,6.105830193,NO,NO-14
SDR,LEXJ,Santander Airport,43.42710114,-3.820009947,ES,ES-S
SEK,UESK,Srednekolymsk Airport,67.4805,153.7364,RU,RU-SA
SEN,EGMC,Southend Airport,51.57139969,0.695555985,GB,GB-ENG
SEV,UKCS,Sievierodonetsk Airport,48.9003301,38.54166985,UA,UA-09
SEX,ETAS,Sembach Air Base,49.507,7.866,DE,DE-RP
SFT,ESNS,Skellefteå Airport,64.62480164,21.07690048,SE,SE-AC
SGD,EKSB,Sønderborg Airport,54.96440125,9.791729927,DK,DK-83
SGE,EDGS,Siegerland Airport,50.70769882,8.082969666,DE,DE-NW
SIE,LPSI,Sines Airport,37.941692,-8.817301,PT,PT-15
SIJ,BISI,Siglufjörður Airport,66.133301,-18.9167,IS,IS-6
SIP,UKFF,Simferopol International Airport,45.0522,33.975101,UA,UA-43
SIR,LSGS,Sion Airport,46.219166,7.326944,CH,CH-VS
SJJ,LQSA,Sarajevo International Airport,43.82460022,18.3314991,BA,BA-BIH
SJY,EFSI,Seinäjoki Airport,62.692101,22.8323,FI,FI-03
SJZ,LPSJ,São Jorge Airport,38.665501,-28.1758,PT,PT-20
SKE,ENSN,Skien Airport,59.18500137,9.566940308,NO,NO-08
SKG,LGTS,Thessaloniki Macedonia International Airport,40.5196991,22.97089958,GR,GR-54
SKN,ENSK,Stokmarknes Skagen Airport,68.5788269,15.03341675,NO,NO-18
SKP,LWSK,Skopje International Airport,41.961601,21.621401,MK,MK-004
SKS,EKSP,Skrydstrup Air Base,55.221048,9.26702,DK,DK-83
SKU,LGSY,Skiros Airport,38.96760178,24.48719978,GR,GR-04
SKX,UWPS,Saransk Airport,54.1251297,45.21225739,RU,RU-MO
SLD,LZSL,Slia? Airport,48.63779831,19.13409996,SK,SK-BC
SLM,LESA,Salamanca Airport,40.95209885,-5.501989841,ES,ES-CL
SLS,LBSS,Silistra Polkovnik Lambrinovo Air Base,44.055199,27.178801,BG,BG-19
SMA,LPAZ,Santa Maria Airport,36.97140121,-25.17060089,PT,PT-20
SMI,LGSM,Samos Airport,37.68999863,26.9116993,GR,GR-84
SMV,LSZS,Samedan Airport,46.53409958,9.884110451,CH,CH-GR
SNN,EINN,Shannon Airport,52.702,-8.92482,IE,IE-CE
SNR,LFRZ,Saint-Nazaire-Montoir Airport,47.3105556,-2.1566667,FR,FR-PDL
SOB,LHSM,Hévíz–Balaton Airport,46.686391,17.159084,HU,HU-ZA
SOF,LBSF,Sofia Airport,42.69669342,23.41143608,BG,BG-23
SOG,ENSG,Sogndal Airport,61.156101,7.13778,NO,NO-14
SOJ,ENSR,Sørkjosen Airport,69.78679657,20.95940018,NO,NO-19
SOO,ESNY,Söderhamn Airport,61.26150131,17.09910011,SE,SE-X
SOT,EFSO,Sodankyla Airport,67.39499664,26.61910057,FI,FI-10
SOU,EGHI,Southampton Airport,50.95029831,-1.35679996,GB,GB-ENG
SOY,EGER,Stronsay Airport,59.15530014,-2.641390085,GB,GB-SCT
SOZ,LFKS,Solenzara (BA 126) Air Base,41.92440033,9.406000137,FR,FR-COR
SPC,GCLA,La Palma Airport,28.626499,-17.7556,ES,ES-CN
SPJ,LGSP,Sparti Airport,36.97389984,22.52630043,GR,GR-16
SPM,ETAD,Spangdahlem Air Base,49.97269821,6.692500114,DE,DE-RP
SPU,LDSP,Split Airport,43.53889847,16.29800034,HR,HR-17
SQO,ESUD,Storuman Airport,64.96089935,17.69659996,SE,SE-AC
SQQ,EYSA,Šiauliai International Airport,55.89390182,23.39500046,LT,LT-SA
SQW,EKSV,Skive Airport,56.55020142,9.172980309,DK,DK-82
SQZ,EGXP,RAF Scampton,53.30780029,-0.550832987,GB,GB-ENG
SRP,ENSO,Stord Airport,59.79190063,5.340849876,NO,NO-12
SSJ,ENST,Sandnessjøen Airport (Stokka),65.95680237,12.46889973,NO,NO-18
STA,EKVJ,Stauning Airport,55.99010086,8.353910446,DK,DK-82
STN,EGSS,London Stansted Airport,51.88499832,0.234999999,GB,GB-ENG
STR,EDDS,Stuttgart Airport,48.68989944,9.221960068,DE,DE-BW
STW,URMT,Stavropol Shpakovskoye Airport,45.10919952,42.1128006,RU,RU-STA
SUF,LICA,Lamezia Terme Airport,38.905399,16.2423,IT,IT-78
SUJ,LRSM,Satu Mare Airport,47.70330048,22.88570023,RO,RO-SM
SUK,UEBS,Sakkyryr Airport,67.792,130.394,RU,RU-SA
SVG,ENZV,Stavanger Airport Sola,58.87670135,5.63778019,NO,NO-11
SVJ,ENSH,Svolvær Helle Airport,68.24330139,14.66919994,NO,NO-18
SVL,EFSA,Savonlinna Airport,61.9431,28.945101,FI,FI-04
SVO,UUEE,Sheremetyevo International Airport,55.972599,37.4146,RU,RU-MOS
SVQ,LEZL,Sevilla Airport,37.41799927,-5.893109798,ES,ES-AN
SWS,EGFH,Swansea Airport,51.6053009,-4.067830086,GB,GB-WLS
SWV,UHMW,Severo-Evensk Airport,61.921665,159.229996,RU,RU-MAG
SXB,LFST,Strasbourg Airport,48.53829956,7.628230095,FR,FR-GES
SXL,EISG,Sligo Airport,54.28020096,-8.599209785,IE,IE-SO
SYK,BIST,Stykkishólmur Airport,65.05809784,-22.7942009,IS,IS-3
SYS,UERS,Saskylakh Airport,71.92790222,114.0800018,RU,RU-SA
SYT,LFLN,Saint-Yan Airport,46.41249847,4.013259888,FR,FR-BFC
SYY,EGPO,Stornoway Airport,58.21559906,-6.331110001,GB,GB-SCT
SZG,LOWS,Salzburg Airport,47.79330063,13.00430012,AT,AT-5
SZR,LBSZ,Stara Zagora Airport,42.3766667,25.655,BG,BG-24
SZW,EDOP,Schwerin Parchim Airport,53.426998,11.7834,DE,DE-MV
SZY,EPSY,Olsztyn-Mazury Airport,53.481899,20.9377,PL,PL-WN
SZZ,EPSC,"Szczecin-Goleniów ""Solidarno??"" Airport",53.58470154,14.90219975,PL,PL-ZP
TAR,LIBG,"Taranto-Grottaglie ""Marcello Arlotta"" Airport",40.517502,17.4032,IT,IT-75
TAT,LZTT,Poprad-Tatry Airport,49.07360077,20.24110031,SK,SK-KI
TAY,EETU,Tartu Airport,58.30749893,26.69039917,EE,EE-7B
TBW,UUOT,Donskoye Airport,52.80609894,41.48279953,RU,RU-TAM
TCE,LRTC,Tulcea Airport,45.0625,28.71430016,RO,RO-TL
TED,EKTS,Thisted Airport,57.06880188,8.705220222,DK,DK-81
TEQ,LTBU,Tekirda? Çorlu Airport,41.13819885,27.91909981,TR,TR-59
TER,LPLA,Lajes Airport,38.761799,-27.090799,PT,PT-20
TEV,LETL,Teruel Airport,40.403,-1.2183,ES,ES-AR
TEY,BITE,Þingeyri Airport,65.87030029,-23.55999947,IS,IS-4
TFN,GCXO,Tenerife Norte Airport,28.48270035,-16.34149933,ES,ES-CN
TFS,GCTS,Tenerife South Airport,28.04450035,-16.57250023,ES,ES-CN
TGD,LYPG,Podgorica Airport,42.359402,19.2519,ME,ME-16
TGK,URRT,Taganrog Yuzhny Airport,47.1983333,38.8491667,RU,RU-ROS
TGM,LRTM,Transilvania Târgu Mure? International Airport,46.46770096,24.41250038,RO,RO-MS
TGP,UNIP,Podkamennaya Tunguska Airport,61.589699,89.994003,RU,RU-KYA
TGV,LBTG,Bukhovtsi Airfield,43.30659866,26.70089912,BG,BG-25
THF,EDDI,Berlin Tempelhof International Airport,52.473,13.4039,DE,DE-BE
THN,ESGT,Trollhättan-Vänersborg Airport,58.31809998,12.34500027,SE,SE-Q
THO,BITN,Thorshofn Airport,66.21849823,-15.3355999,IS,IS-6
TIA,LATI,Tirana International Airport Mother Teresa,41.41469955,19.72060013,AL,AL-11
TIV,LYTV,Tivat Airport,42.40470123,18.72330093,ME,ME-19
TKU,EFTU,Turku Airport,60.514099,22.2628,FI,FI-19
TLK,UECT,Talakan Airport,59.876389,111.044444,RU,RU-SA
TLL,EETN,Lennart Meri Tallinn Airport,59.41329956,24.83279991,EE,EE-37
TLN,LFTH,Toulon-Hyères Airport,43.09730148,6.146029949,FR,FR-PAC
TLS,LFBO,Toulouse-Blagnac Airport,43.629101,1.36382,FR,FR-OCC
TMP,EFTP,Tampere-Pirkkala Airport,61.414101,23.604401,FI,FI-11
TNF,LFPN,Toussus-le-Noble Airport,48.75189972,2.106189966,FR,FR-IDF
TOJ,LETO,Torrejón Airport,40.49670029,-3.445869923,ES,ES-M
TOS,ENTC,Tromsø Airport,69.6832962,18.91889954,NO,NO-19
TPS,LICT,Vincenzo Florio Airport Trapani-Birgi,37.9114,12.488,IT,IT-82
TQR,IT-TQR,San Domino Island Heliport,42.117775,15.490655,IT,IT-75
TRD,ENVA,Trondheim Airport Værnes,63.4578018,10.9239998,NO,NO-17
TRE,EGPU,Tiree Airport,56.49919891,-6.869170189,GB,GB-SCT
TRF,ENTO,"Sandefjord Airport, Torp",59.18669891,10.25860024,NO,NO-07
TRN,LIMF,Turin Airport,45.200802,7.64963,IT,IT-21
TRS,LIPQ,Trieste–Friuli Venezia Giulia Airport,45.827499,13.4722,IT,IT-36
TSF,LIPH,Treviso-Sant'Angelo Airport,45.648399,12.1944,IT,IT-34
TSR,LRTR,Timi?oara Traian Vuia Airport,45.80989838,21.33790016,RO,RO-TM
TTB,LIET,Tortolì Airport,39.9188,9.68298,IT,IT-88
TUF,LFOT,Tours-Val-de-Loire Airport,47.43220139,0.727605999,FR,FR-CVL
TXL,EDDT,Berlin-Tegel Airport,52.5597,13.2877,DE,DE-BE
TYA,UUWV,Klokovo Airfield,54.239,37.6,RU,RU-TUL
TYD,UHBW,Tynda Airport,55.284199,124.778999,RU,RU-AMU
TYF,ESST,Torsby Airport,60.1576004,12.99129963,SE,SE-S
TZL,LQTZ,Tuzla International Airport,44.45869827,18.72480011,BA,BA-BIH
TZR,LHTA,Taszár Air Base,46.39310074,17.91749954,HU,HU-SO
UCK,UKLC,Lutsk Airport,50.678404,25.487165,UA,UA-07
UCT,UUYH,Ukhta Airport,63.56689835,53.80469894,RU,RU-KO
UDJ,UKLU,Uzhhorod International Airport,48.63430023,22.26339912,UA,UA-21
UDN,LIPD,Udine-Campoformido Air Base,46.0322,13.1868,IT,IT-36
UEN,USDU,Urengoy Airport,65.95999908,78.43699646,RU,RU-YAN
UFA,UWUU,Ufa International Airport,54.55749893,55.87440109,RU,RU-BA
UHE,LKKU,Kunovice Airport,49.02939987,17.43969917,CZ,CZ-ZL
UHF,EGUA,RAF Upper Heyford,51.9375,-1.248890042,GB,GB-ENG
UIP,LFRQ,Quimper-Cornouaille Airport,47.97499847,-4.167789936,FR,FR-BRE
UKG,UEBT,Ust-Kuyga Airport,70.011002,135.645004,RU,RU-SA
UKS,UKFB,Belbek Air Base,44.688999,33.570999,UA,UA-43
ULV,UWLL,Ulyanovsk Baratayevka Airport,54.2682991,48.22669983,RU,RU-ULY
ULY,UWLW,Ulyanovsk East Airport,54.40100098,48.80270004,RU,RU-ULY
UME,ESNU,Umeå Airport,63.79180145,20.28280067,SE,SE-AC
UMS,UEMU,Ust-Maya Airport,60.35699844,134.4349976,RU,RU-SA
UMY,UKHS,Sumy Airport,50.85829926,34.76250076,UA,UA-59
UNT,EGPW,Unst Airport,60.74720001,-0.853850007,GB,GB-SCT
UPV,EGDJ,Upavon Aerodrome,51.28620148,-1.782019973,GB,GB-ENG
URD,EDQE,Burg Feuerstein Airport,49.79416656,11.13361073,DE,DE-BY
URE,EEKE,Kuressaare Airport,58.22990036,22.5095005,EE,EE-74
URO,LFOP,Rouen Airport,49.38420105,1.174800038,FR,FR-NOR
URS,UUOK,Kursk East Airport,51.75059891,36.29560089,RU,RU-KRS
USK,UUYS,Usinsk Airport,66.00469971,57.36719894,RU,RU-KO
USR,UEMT,Ust-Nera Airport,64.55000305,143.1150055,RU,RU-SA
UTC,EHSB,Soesterberg Air Base,52.1273,5.27619,NL,NL-UT
UTI,EFUT,Utti Airport,60.8964,26.9384,FI,FI-09
UTS,UUYX,Ust-Tsylma Airport,65.43729401,52.20033646,RU,RU-KO
UUA,UWKB,Bugulma Airport,54.63999939,52.80170059,RU,RU-TA
VAA,EFVA,Vaasa Airport,63.050701,21.762199,FI,FI-12
VAC,EDWU,Varrelbusch Airport,52.908333,8.040556,DE,DE-NI
VAF,LFLU,Valence-Chabeuil Airport,44.9216,4.9699,FR,FR-ARA
VAR,LBWN,Varna Airport,43.232101,27.8251,BG,BG-03
VAW,ENSS,"Vardø Airport, Svartnes",70.35540009,31.04490089,NO,NO-20
VBS,LIPO,Brescia Airport,45.428902,10.3306,IT,IT-25
VBY,ESSV,Visby Airport,57.66279984,18.34620094,SE,SE-I
VCE,LIPZ,Venice Marco Polo Airport,45.505299,12.3519,IT,IT-34
VDB,ENFG,Leirin Airport,61.0155983,9.288060188,NO,NO-05
VDE,GCHI,Hierro Airport,27.81480026,-17.88710022,ES,ES-CN
VDS,ENVD,Vadsø Airport,70.06529999,29.84469986,NO,NO-20
VEY,BIVM,Vestmannaeyjar Airport,63.42430115,-20.27890015,IS,IS-8
VGD,ULWW,Vologda Airport,59.28250122,39.94440079,RU,RU-VLG
VGO,LEVX,Vigo Airport,42.23180008,-8.62677002,ES,ES-GA
VHM,ESNV,Vilhelmina Airport,64.57910156,16.83359909,SE,SE-AC
VHY,LFLV,Vichy-Charmeil Airport,46.16970062,3.403739929,FR,FR-ARA
VIC,LIPT,Vicenza Airport,45.573399,11.5295,IT,IT-34
VIE,LOWW,Vienna International Airport,48.11029816,16.56970024,AT,AT-9
VIF,VIF,Vieste Airport,41.883317,16.166667,IT,IT-75
VIN,UKWW,Vinnytsia/Gavyryshivka Airport,49.242531,28.613778,UA,UA-05
VIT,LEVT,Vitoria/Foronda Airport,42.88280106,-2.7244699,ES,ES-PV
VIY,LFPV,Villacoublay-Vélizy (BA 107) Air Base,48.7741667,2.1916667,FR,FR-IDF
VKO,UUWW,Vnukovo International Airport,55.59149933,37.26150131,RU,RU-MOS
VLC,LEVC,Valencia Airport,39.4893,-0.481625,ES,ES-V
VLK,URRY,Volgodonsk Airport,47.682098,42.0728,RU,RU-ROS
VLL,LEVD,Valladolid Airport,41.70610046,-4.851940155,ES,ES-CL
VLU,ULOL,Velikiye Luki Airport,56.3810997,30.60810089,RU,RU-PSK
VLY,EGOV,Anglesey Airport,53.24810028,-4.535339832,GB,GB-WLS
VNE,LFRV,Vannes-Meucon Airport,47.72330093,-2.71855998,FR,FR-BRE
VNO,EYVI,Vilnius International Airport,54.634102,25.285801,LT,LT-VL
VNT,EVVA,Ventspils International Airport,57.35779953,21.5442009,LV,LV-VEN
VOD,LKVO,Vodochody Airport,50.216599,14.3958,CZ,CZ-ST
VOG,URWW,Volgograd International Airport,48.78250122,44.34550095,RU,RU-VGG
VOL,LGBL,Nea Anchialos Airport,39.21960068,22.79430008,GR,GR-43
VOZ,UUOO,Voronezh International Airport,51.81420135,39.229599,RU,RU-VOR
VPN,BIVO,Vopnafjörður Airport,65.72059631,-14.85060024,IS,IS-7
VRI,ULDW,Varandey Airport,68.848503,58.201401,RU,RU-NEN
VRK,EFVR,Varkaus Airport,62.171101,27.868601,FI,FI-04
VRL,LPVR,Vila Real Airport,41.2743,-7.72047,PT,PT-17
VRN,LIPX,Verona Villafranca Airport,45.395699,10.8885,IT,IT-34
VRY,ENVR,Værøy Heliport,67.654555,12.727257,NO,NO-18
VSE,LPVZ,Aerodromo Goncalves Lobato (Viseu Airport),40.725498,-7.88899,PT,PT-18
VSG,UKCW,Luhansk International Airport,48.41740036,39.37409973,UA,UA-09
VST,ESOW,Stockholm Västerås Airport,59.58940125,16.63360023,SE,SE-U
VTB,UMII,Vitebsk Vostochny Airport,55.12649918,30.34959984,BY,BY-VI
VUS,RU-VUS,Velikiy Ustyug Airport,60.78829956,46.25999832,RU,RU-VLG
VVK,ESSW,Västervik Airport,57.77999878,16.52359962,SE,SE-H
VVO,UHWW,Vladivostok International Airport,43.396256,132.148155,RU,RU-PRI
VXO,ESMX,Växjö Kronoberg Airport,56.92910004,14.72799969,SE,SE-G
WAT,EIWF,Waterford Airport,52.18719864,-7.086959839,IE,IE-WD
WAW,EPWA,Warsaw Chopin Airport,52.16569901,20.96710014,PL,PL-MZ
WBG,ETNS,Schleswig Air Base,54.459301,9.51633,DE,DE-SH
WEM,EGKM,RAF West Malling,51.27,0.4,GB,GB-ENG
WHS,EGEH,Whalsay Airport,60.37749863,-0.925556004,GB,GB-SCT
WIC,EGPC,Wick Airport,58.45890045,-3.093060017,GB,GB-SCT
WID,WID,RAF Wildenrath,51.1141,6.2151,DE,DE-NW
WIE,ETOU,Wiesbaden Army Airfield,50.04980087,8.325400352,DE,DE-HE
WMI,EPMO,Modlin Airport,52.451099,20.6518,PL,PL-MZ
WOE,EHWO,Woensdrecht Air Base,51.4491,4.34203,NL,NL-NB
WRO,EPWR,Copernicus Wroc?aw Airport,51.10269928,16.88579941,PL,PL-DS
WRT,EGNO,Warton Aerodrome,53.745098,-2.88306,GB,GB-ENG
WRY,EGEW,Westray Airport,59.35029984,-2.950000048,GB,GB-SCT
WTN,EGXW,RAF Waddington,53.16619873,-0.523810983,GB,GB-ENG
WVN,EDWI,Wilhelmshaven-Mariensiel Airport,53.50222015,8.052222252,DE,DE-NI
XCR,LFOK,Châlons-Vatry Airport,48.77333333,4.206111111,FR,FR-GES
XCZ,LFQV,Charleville-Mézières Airport,49.78390121,4.647079945,FR,FR-GES
XDA,LFBY,Dax Seyresse Airport,43.68920135,-1.068889976,FR,FR-NAQ
XFW,EDHI,Hamburg-Finkenwerder Airport,53.53527832,9.83555603,DE,DE-HH
XLW,EDWD,Lemwerder Airport,53.144699,8.62444,DE,DE-HB
XME,LFQJ,Maubeuge-Élesmes Airport,50.3105011,4.033120155,FR,FR-HDF
XOG,LFMO,Orange-Caritat (BA 115) Air Base,44.14049911,4.8667202,FR,FR-PAC
XRY,LEJR,Jerez Airport,36.744598,-6.06011,ES,ES-AN
XVS,LFAV,Valenciennes-Denain Airport,50.325802,3.46126,FR,FR-HDF
YEO,EGDY,RNAS Yeovilton,51.00939941,-2.638819933,GB,GB-ENG
YLI,EFYL,Ylivieska Airfield,64.054722,24.725278,FI,FI-14
ZAD,LDZD,Zadar Airport,44.108299,15.3467,HR,HR-13
ZAG,LDZA,Zagreb Airport,45.74290085,16.06879997,HR,HR-21
ZAO,LFCC,Aérodrome de Cahors-Lalbenque,44.351398,1.47528,FR,FR-OCC
ZAZ,LEZG,Zaragoza Air Base,41.66619873,-1.04155004,ES,ES-AR
ZBE,LKZA,Zabreh Ostrava Airport,49.92829895,18.07830048,CZ,CZ-MO
ZBK,ZBK,Žabljak Airport,43.116669,19.233334,ME,ME-21
ZHI,LSZG,Grenchen Airport,47.181599,7.41719,CH,CH-SO
ZIA,UUBW,Zhukovsky International Airport,55.553299,38.150002,RU,RU-MOS
ZIN,LSMI,Interlaken Air Base,46.6766014,7.8790798,CH,CH-BE
ZJI,LSZL,Locarno Airport,46.16080093,8.878609657,CH,CH-TI
ZMG,EDBM,"Magdeburg ""City"" Airport",52.073612,11.626389,DE,DE-ST
ZQL,EDTD,Donaueschingen-Villingen Airport,47.97333145,8.522221565,DE,DE-BW
ZQW,EDRZ,Zweibrücken Airport,49.2094,7.40056,DE,DE-RP
ZRH,LSZH,Zürich Airport,47.464699,8.54917,CH,CH-ZH
ZTH,LGZA,"Zakynthos International Airport ""Dionysios Solomos""",37.7509,20.8843,GR,GR-21
ZTR,UKKV,Zhytomyr Airport,50.270556,28.738611,UA,UA-18
